Organisation Name,Phone,Languages,Googlemaps Address,Website,Address
ABL  Accès Accueil Action,Tel. :  514 570-3313,"Français, Anglais, Espagnol, Portugais",https://maps.app.goo.gl/DvhX1rvEzepHEFmw9,https://www.abl-immigration.org,"ABL  Accès Accueil Action 6, rue de l’Église, 3e étage Sainte-Thérèse (Laurentides) J7E 3L1 Tel. :  514 570-3313"
ABL Accès Accueil Action Basses-Laurentides,Tel. :  514 570-3313,"Français, Anglais, Espagnol, Arabe, Berbère, Portugais, Russe, Ukrainien, Roumain, Batoufam, Bankondji","https://www.google.ca/maps/place/184+Rue+Saint-Eustache,+Saint-Eustache,+QC+J7R+2L7/@45.5582506,-73.8959556,17z/data=!3m1!4b1!4m6!3m5!1s0x4cc9257e00a9ea8b:0xb751762efa731301!8m2!3d45.5582469!4d-73.8937669!16s%2Fg%2F11b8v6l0xx",https://www.abl-immigration.org,"ABL Accès Accueil Action Basses-Laurentides 184, rue Saint-Eustache Saint-Eustache (Laurentides) J7R 2L7 Tel. :  514 570-3313"
Accompagnement des Femmes Immigrantes de L'Outaouais (AFIO),Tel. :  819 776-6764,"Français, Anglais, Arabe, Lingala, Créole, Kikongo, Tamoul, Allemand, Espagnol, Farsi, Swahili","http://maps.google.ca/maps?q=109, rue Wright, local 009 Gatineau, Québec J8X2G7",https://www.afio.ca,"Accompagnement des Femmes Immigrantes de L'Outaouais (AFIO) 109, rue Wright Gatineau (Outaouais) J8X 2G7 Tel. :  819 776-6764 Fax :  819 776-5617"
Accueil aux Immigrants de l'Est de Montréal (Pointe-Aux-Trembles),Tel. :  514 788-4343,"Français, Anglais, Espagnol","https://www.google.com/maps/place/14115+Rue+Prince-Arthur,+Pointe-aux-Trembles,+QC+H1A+1A8/@45.6710556,-73.5118366,17z/data=!3m1!4b1!4m5!3m4!1s0x4cc8e17d2a88bb97:0x957eec1445664b6e!8m2!3d45.6710556!4d-73.5096479",https://www.aiemont.com,"Accueil aux Immigrants de l'Est de Montréal (Pointe-Aux-Trembles) 14115, rue Prince-Arthur Montréal (Montréal) H1A 1A8 Tel. :  514 788-4343 Fax :  514 723-3619"
Accueil aux Immigrants de l'Est de Montréal (Rivière-Des-Prairies),Tel. :  514 872-0107,"Français, Anglais, Espagnol, Créole","https://www.google.com/maps/place/9001+Boulevard+Perras,+Montr%C3%A9al,+QC+H1E+3J7/@45.6497644,-73.5811602,17z/data=!3m1!4b1!4m5!3m4!1s0x4cc8e034333e644f:0x161b89fbffa7892e!8m2!3d45.6497644!4d-73.5789715",https://www.aiemont.com,"Accueil aux Immigrants de l'Est de Montréal (Rivière-Des-Prairies) 9001, boulevard Perras Montréal (Montréal) H1E 3J7 Tel. :  514 872-0107 Fax :  514 723-3619"
Accueil aux Immigrants de l'Est de Montréal (St-Léonard),Tel. :  514 723-4939,"Français, Anglais, Espagnol, Arabe, Maroc et International), Kabyle, Créole, Polonais, Langues africaines (Peul, Wolof, Soussou, Malinké, Fon, Moré, Mossi)","http://maps.google.ca/maps?q=5960, rue Jean-Talon, bureau 209 Montréal, Québec H1S1M2",https://www.aiemont.com,"Accueil aux Immigrants de l'Est de Montréal (St-Léonard) 5960, rue Jean-Talon Est Montréal (Montréal) H1S 1M2 Tel. :  514 723-4939 Fax :  514 723-3619"
Accueil et Intégration BSL Inc.,Tel. :  581 824-1662,"Français, Anglais, Espagnol, Swahili, Créole, Lingala, Arabe, Wolof, Sango, Swahili, Vietnamien",https://goo.gl/maps/aVGBK6yDLvEWarG1A,https://www.aibsl.org,"Accueil et Intégration BSL Inc. 192, rue Saint-Germain Est Rimouski (Bas-Saint-Laurent) G5L 1A8 Tel. :  581 824-1662 Fax :  418 730-6737"
Accueil pour Immigrants et Réfugiés Du Sud-ouest de Montréal Centre PRISME,Tel. :  514 364-0939,"Français, Anglais, Espagnol, Serbe, Russe, Punjabi, Arabe, Bulgare, Moldave, Hindi","http://maps.google.ca/maps?q=414, rue Lafleur, bureau 1.10 Montréal, Québec H8R3H6",https://www.airsomprisme.org,"Accueil pour Immigrants et Réfugiés Du Sud-ouest de Montréal Centre PRISME 110-414, avenue Lafleur Montréal (Montréal) H8R 3H6 Tel. :  514 364-0939 Fax :  514 364-9992"
Accueil-Parrainage Outaouais,Tel. :  819 777-2960,"Français, Anglais, Espagnol, Swahili, Italien, Dari, Kirundi, Croate, Farsi","http://maps.google.ca/maps?q=124, rue Jeanne-d'Arc Gatineau, Québec J8Y2H7",https://www.apo-qc.org,"Accueil-Parrainage Outaouais 124, rue Jeanne-d'Arc Gatineau (Outaouais) J8Y 2H7 Tel. :  819 777-2960 Fax :  819 777-1739"
Action Famille Lavaltrie Inc.,Tel. :  450 586-0733,"Français, Anglais, Espagnol","https://www.google.com/maps/place/1725+Rue+Notre-Dame,+Lavaltrie,+QC+J5T+1S2/@45.8895066,-73.2756909,17z/data=!3m1!4b1!4m5!3m4!1s0x4cc8ed59e35b9ff7:0x3393826508eacfc0!8m2!3d45.8895066!4d-73.2735021",https://www.actionfamillelavaltrie.org,"Action Famille Lavaltrie Inc. 1725, rue Notre-Dame Lavaltrie (Lanaudière) J5T 1S2 Tel. :  450 586-0733"
"Agora Boréale, Association Interculturelle de Lebel-Sur-Quévillon",Tel. :  820 755-7550,"Français, Anglais, Espagnol, Créole",https://maps.app.goo.gl/R2W3VYCBdrRmT2ev8,https://fr-ca.facebook.com/agoraboreale/,"Agora Boréale, Association Interculturelle de Lebel-Sur-Quévillon 195, Boulevard Matagami Matagami (Nord-du-Québec) J0Y 2A0 Tel. :  820 755-7550"
"Agora Boréale, Association Interculturelle de Lebel-Sur-Quévillon",Tel. :  819 755-7550,"Français, Anglais, Espagnol, Créole",,https://fr-ca.facebook.com/agoraboreale/,"Agora Boréale, Association Interculturelle de Lebel-Sur-Quévillon 60, Place Quévillon Lebel-sur-Quévillon (Nord-du-Québec) J0Y 1X0 Tel. :  819 755-7550"
ALAC (Alliance pour L'Accueil et l'Intégration des Immigrants-es),Tel. :  514 737-3642,"Français, Anglais, Persan, Espagnol, Portugais, Russe, Ukrainien, Polonais, Catalan, Polonais, Arménien","http://maps.google.ca/maps?q=5165, chemin Queen-Mary, bureau 350 Montréal, Québec H3W1X7",https://www.alac.qc.ca,"ALAC (Alliance pour L'Accueil et l'Intégration des Immigrants-es) 350-5165, chemin Queen-Mary Montréal (Montréal) H3W 1X7 Tel. :  514 737-3642 Fax :  514 737-3514"
Alliance Carrière Travail (ACT)  (Brossard),Tel. :  450 462-2003,"Français, Anglais, Arabe, Espagnol, Roumain, Mandarin, Polonais, Créole",https://maps.app.goo.gl/9saRssoAFgFufLCj9,https://www.alliancect.ca,"Alliance Carrière Travail (ACT)  (Brossard) 7845 boul. Taschereau, suite 201 Brossard (Montérégie) J4Y 1A4 Tel. :  450 462-2003 Fax :  450 462-3733"
Alliance Carrière Travail (ACT) (Châteauguay),Tel. :  450 699-4545,"Français, Anglais, Arabe, Espagnol, Roumain, Mandarin, Polonais, Créole",https://maps.app.goo.gl/5QN5wwG4evkbj9qdA,https://www.alliancect.ca,Alliance Carrière Travail (ACT) (Châteauguay) 265 boulevard d’Anjou Châteauguay (Montérégie) J6J 5J9 Tel. :  450 699-4545 Fax :  450 462-3733
Alliance Carrière Travail (ACT) (Longueuil),Tel. :  450 462-2003,"Français, Anglais, Arabe, Espagnol, Roumain, Mandarin, Polonais, Créole",https://maps.app.goo.gl/SagAjNKxApQvqJk56,https://www.alliancect.ca,"Alliance Carrière Travail (ACT) (Longueuil) 13, rue Saint-Laurent Est Longueuil (Montérégie) J4H 4B7 Tel. :  450 462-2003 Fax :  450 462-3733"
AMINATE Accueil Multiethnique et Intégration de Nouveaux Arrivants à Terrebonne et les Environs,Tel. :  450 492-7989,"Français, Anglais, Arabe, Espagnol, Créole, Wolof, Portugais","https://www.google.ca/maps/place/500+Boulevard+des+Seigneurs,+Terrebonne,+QC+J6W+1T3/@45.7036425,-73.6353195,17z/data=!3m1!4b1!4m5!3m4!1s0x4cc8de68c4748cb9:0x3dfaf4f5260f45f4!8m2!3d45.7036388!4d-73.6331308",https://www.aminate.qc.ca,"AMINATE Accueil Multiethnique et Intégration de Nouveaux Arrivants à Terrebonne et les Environs 500, boulevard des Seigneurs Terrebonne (Lanaudière) J6W 1T3 Tel. :  450 492-7989 Fax :  450 492-1303"
Bienvenue à Notre-Dame-De-Grâce,Tel. :  514 561-5850,"Français, Anglais, Arabe, Coréen, Espagnol, Ourdou, Tigrinya, Mandarin, Portugais, Russe, Persan, Dari, Ukrainien","https://www.google.com/maps/place/2180+Avenue+Belgrave,+Montr%C3%A9al,+QC+H4A+2L8/@45.467152,-73.6189047,17z/data=!3m1!4b1!4m5!3m4!1s0x4cc910b6ffc4cf95:0x57c84af3d0fabf76!8m2!3d45.467152!4d-73.616716",https://www.bienvenuendg.ca,Bienvenue à Notre-Dame-De-Grâce 2180 avenue Belgrave Montréal (Montréal) H4A 2L8 Tel. :  514 561-5850 Fax :  438 927-5850
C.O.F.F.R.E.T. Centre de Formation et d'Orientation pour Favoriser les Relations Ethniques Traditionnelles,Tel. :  450 565-2998,"Français, Anglais, Arabe, Espagnol, Russe, Ukrainien, Swahili, Kirundi, Sango, Kinyarwanda, Népalais, Turc, Kiswahili","https://www.google.com/maps/search/181,+rue+Bri%C3%83%C2%A8re/@45.4836571,-75.6439149,17z/data=!3m1!4b1",https://www.lecoffret.ca,"C.O.F.F.R.E.T. Centre de Formation et d'Orientation pour Favoriser les Relations Ethniques Traditionnelles 181, rue Brière Saint-Jérôme (Laurentides) J7Y 3A7 Tel. :  450 565-2998 Fax :  450 565-3577"
CARI St-Laurent,Tel. :  514 748-2007,"Français, Allemand, Anglais, Arabe, Berbère, Mandarin, Créole, Espagnol, Kabyle, Russe, Turc, Wolof, Kirundi, Lingala, Roumain, Ukrainien","https://www.google.com/maps/place/774+Bd+D%C3%A9carie,+Saint-Laurent,+QC+H4L+3L5/@45.5109089,-73.6801941,17z/data=!3m1!4b1!4m5!3m4!1s0x4cc9183f0a9fe6c1:0xd0e1cb8bfe4b280e!8m2!3d45.5109089!4d-73.6780054",https://www.cari.qc.ca,"CARI St-Laurent 774, boulevard Décarie Montréal (Montréal) H4L 3L5 Tel. :  514 748-2007 Fax :  514 748-2766"
Carrefour d'Aide aux Nouveaux Arrivants,Tel. :  514 382-0735,"Français, Anglais, Espagnol, Arabe, Polonais, Portugais.","http://maps.google.ca/maps?q=10780, rue Laverdure Montréal, Québec H3L2L9",https://www.Canamtl.com,"Carrefour d'Aide aux Nouveaux Arrivants 10780, rue Laverdure Montréal (Montréal) H3L 2L9 Tel. :  514 382-0735 Fax :  514 382-5232"
Carrefour d'Intercultures de Laval,Tel. :  450 686-0554,"Français, Anglais, Espagnol, Arabe, Dari, Arménien, Italien, Créole, Turc, Grec","http://maps.google.ca/maps?q=1536, boulevard Curé-Labelle Local 226 Laval, Québec H7V2W2",https://www.carrefourintercultures.com,"Carrefour d'Intercultures de Laval 226-1536, boulevard Curé-Labelle Laval (Laval) H7V 2W2 Tel. :  450 686-0554 Fax :  450 686-2809"
Carrefour de la Vallée-de-l’Or (Anciennement : Carrefour jeunesse Emploi d'Abitibi-Est) (Malartic),Tel. :  819 825-5627,Français,"https://www.google.com/maps/place/550+Quatrieme+Ave,+Malartic,+QC+J0Y+1Z0/@48.1412604,-78.1230651,17z/data=!3m1!4b1!4m5!3m4!1s0x4d20ad784a4fc9cf:0xba36acc68fada06a!8m2!3d48.1412604!4d-78.1208764",https://www.cjeae.qc.ca,"Carrefour de la Vallée-de-l’Or (Anciennement : Carrefour jeunesse Emploi d'Abitibi-Est) (Malartic) 550, 4e avenue Malartic (Abitibi-Témiscamingue) J0Y 1Z0 Tel. :  819 825-5627"
Carrefour de la Vallée-de-l’Or (Anciennement : Carrefour jeunesse Emploi d'Abitibi-Est) (Val D'or),Tel. :  819 825-5627,Français,https://maps.app.goo.gl/AGxNZvK5ZcAYe6CLA,https://www.cjeae.qc.ca,"Carrefour de la Vallée-de-l’Or (Anciennement : Carrefour jeunesse Emploi d'Abitibi-Est) (Val D'or) 1100, 3e Avenue Ouest Val-d'Or (Abitibi-Témiscamingue) J9P 1T6 Tel. :  819 825-5627"
Carrefour de la Vallée-de-l’Or (Anciennement : Carrefour jeunesse Emploi d'Abitibi-Est)(Senneterre),Tel. :  819 825-5627,Français,https://maps.app.goo.gl/HAw7T9E4mDWz3hED8,https://www.cjeae.qc.ca,"Carrefour de la Vallée-de-l’Or (Anciennement : Carrefour jeunesse Emploi d'Abitibi-Est)(Senneterre) 240, 4e Rue ouest Senneterre (Abitibi-Témiscamingue) J0Y 1M0 Tel. :  819 825-5627"
Carrefour Emploi des Collines,Tel. :  819 457-4480,"Français, Anglais, Espagnol, Persan, Dari, Farsi","https://www.google.ca/maps/place/1694+Mnt+de+la+Source,+Cantley,+QC+J8V+3H6/@45.6228039,-75.8027867,17z/data=!3m1!4b1!4m5!3m4!1s0x4cd1e08751094c1f:0xe68b1d3ba5c80427!8m2!3d45.6228039!4d-75.800598?hl=fr",https://www.toncec.ca/,"Carrefour Emploi des Collines 1694, Montée de la Source, Cantley (Outaouais) J8V3H6 Tel. :  819 457-4480 Fax :  819 457-2141"
Carrefour Emploi Haut St-Maurice,Tel. :  819 523-9274,"Français, Anglais, Espagnol","https://www.google.com/maps/place/545+Rue+Saint+Antoine,+La+Tuque,+QC+G9X+2Y6/@47.4397028,-72.7862748,17z/data=!3m1!4b1!4m5!3m4!1s0x4cc15291273f838b:0xc61a02deda6a3b67!8m2!3d47.4396992!4d-72.7840861",https://www.moncarrefouremploi.ca,"Carrefour Emploi Haut St-Maurice 545, rue Saint-Antoine La Tuque (Mauricie) G9X 2Y5 Tel. :  819 523-9274 Fax :  819 523-9301"
Carrefour Emploi Lotbinière,Tel. :  418 888-8855,"Français, Anglais, Espagnol","http://maps.google.ca/maps?q=1159, rue Principale, bureau 101, Saint-Agapit (Québec) Saint-Agapit, Québec G0S1Z0",https://www.cjelotbiniere.qc.ca,"Carrefour Emploi Lotbinière 101-1159, rue Principale Saint-Agapit (Chaudière-Appalaches) G0S 1Z0 Tel. :  418 888-8855 Fax :  418 888-8865"
Carrefour Jeunesse Emploi D'Abitibi-Ouest,Tel. :  819 333-1110,Français,"http://maps.google.ca/maps?q=299, rue Principale La Sarre, Québec J9Z1Z1",https://www.cjeao.qc.ca,"Carrefour Jeunesse Emploi D'Abitibi-Ouest 299, rue Principale La Sarre (Abitibi-Témiscamingue) J9Z 1Z1 Tel. :  819 333-1110 Fax :  819 333-1050"
Carrefour Jeunesse Emploi de la Haute-Côte-Nord (CJEHCN) (Les Bergeronnes),Tel. :  581 324-1110,Français,"https://www.google.com/maps/place/427+Rue+de+la+Mer,+Grandes-Bergeronnes,+QC+G0T+1G0,+Canada/@48.24256,-69.544968,16z/data=!4m5!3m4!1s0x4c95819af6e0102b:0x85ace417f8b84d4b!8m2!3d48.24256!4d-69.544968?hl=fr-CA",https://www.cjehcn.qc.ca,"Carrefour Jeunesse Emploi de la Haute-Côte-Nord (CJEHCN) (Les Bergeronnes) 427, rue de la Mer, 2e étage Les Bergeronnes (Côte-Nord) G0T 1G0 Tel. :  581 324-1110"
Carrefour Jeunesse Emploi de la MRC de L'Islet (L'Islet),Tel. :  418 247-7335,"Français, Anglais, Espagnol",https://maps.app.goo.gl/xJZfuZUWDfAGSYQs7,https://www.cjelislet.qc.ca,"Carrefour Jeunesse Emploi de la MRC de L'Islet (L'Islet) 250, boulevard Nilus-Leclerc L'Islet (Chaudière-Appalaches) G0R 2C0 Tel. :  418 247-7335 Fax :  418 247-7342"
Carrefour Jeunesse Emploi de la MRC de L'islet (Tourville),Tel. :  418 359-3730,"Français, Anglais, Espagnol",,https://www.cjelislet.qc.ca,"Carrefour Jeunesse Emploi de la MRC de L'islet (Tourville) 962, rue Des Trembles Tourville (Chaudière-Appalaches) G0R 4M0 Tel. :  418 359-3730 Fax :  418 359-3717"
Carrefour Jeunesse Emploi de la Vallée-De-La-Gatineau (Maniwaki),Tel. :  819 441-1165,"Français, Anglais","http://maps.google.ca/maps?q=217, rue Principale Sud Maniwaki, Québec J9E2A3",https://www.cjevg.qc.ca,"Carrefour Jeunesse Emploi de la Vallée-De-La-Gatineau (Maniwaki) 217, rue Principale Sud Maniwaki (Outaouais) J9E 2A3 Tel. :  819 441-1165 Fax :  819 441-1195"
Carrefour Jeunesse Emploi de Laval (C.J.E.L.),Tel. :  450-967-2535,"Français, Anglais, Espagnol, Ewe, Créole, Arabe","https://www.google.com/maps/place/500+Boulevard+Saint-Martin+O,+Laval,+QC+H7M+3Y2/@45.57582,-73.712697,16z/data=!4m5!3m4!1s0x4cc9218788cd312b:0x8e8a74d828f597be!8m2!3d45.5758197!4d-73.7126967?hl=fr",https://www.cjelaval.qc.ca,"Carrefour Jeunesse Emploi de Laval (C.J.E.L.) 500, boulevard Saint-Martin Ouest Laval (Laval) H7M 3Y2 Tel. :  450-967-2535 Fax :  450 967-1061"
Carrefour Jeunesse Emploi et Option Emploi du Rocher-Percé,Tel. :  418 689-6402,"Français, Anglais","https://www.google.ca/maps/place/CJE+Option+emploi+du+Rocher-Perc%C3%A9/@48.3494017,-64.6969976,17z/data=!3m1!4b1!4m5!3m4!1s0x4c995b41df8a5e73:0xb5a4e93a6a0a90f!8m2!3d48.3493982!4d-64.6948089",https://www.cjeoptionemploi.ca,"Carrefour Jeunesse Emploi et Option Emploi du Rocher-Percé 409, boulevard René-Lévesque Ouest Chandler (Gaspésie-Îles-de-la-Madeleine) G0C 1K0 Tel. :  418 689-6402 Fax :  418 689-4306"
Carrefour Jeunesse-Emploi Comté Nicolet-Bécancour (Nicolet),"Tel. :  819 293-2592, Ext. 226","Français, Anglais, Espagnol","https://www.google.com/maps/place/1330+Boulevard+Louis+Fr%C3%A9chette,+Nicolet,+QC+J3T+1K8/@46.2353376,-72.6089306,17z/data=!3m1!4b1!4m5!3m4!1s0x4cc7da846cc03bdd:0x1a9d5eef837cb422!8m2!3d46.2353339!4d-72.6067419",https://www.cjenicbec.org,"Carrefour Jeunesse-Emploi Comté Nicolet-Bécancour (Nicolet) 1330, boulevard Louis-Fréchette Nicolet (Centre-du-Québec) J3T 1A1 Tel. :  819 293-2592, Ext. 226 Fax :  819 293-8279"
Carrefour Jeunesse-Emploi de Beauce-Nord (Sainte-Marie),Tel. :  418 386-2532,"Français, Anglais, Espagnol, Portugais, Arabe","http://maps.google.ca/maps?q=168, Notre-Dame Sud Sainte-Marie,  G6E4A4",https://www.cjebn.com,"Carrefour Jeunesse-Emploi de Beauce-Nord (Sainte-Marie) 168, Notre-Dame Sud Sainte-Marie (Chaudière-Appalaches) G6E 4A6 Tel. :  418 386-2532 Fax :  418 386-2536"
Carrefour Jeunesse-Emploi de Beauce-Nord (St-Joseph),Tel. :  418 397-8045,"Français, Anglais, Espagnol, Portugais, Arabe","http://maps.google.ca/maps?q=168, Notre-Dame Sud Sainte-Marie,  G6E4A4",https://www.cjebn.com,"Carrefour Jeunesse-Emploi de Beauce-Nord (St-Joseph) 785, avenue Guy-Poulin Saint-Joseph-de-Beauce (Chaudière-Appalaches) G0S 2V0 Tel. :  418 397-8045 Fax :  418 397-8049"
Carrefour Jeunesse-Emploi de Beauce-Sud (Saint-Éphrem),Tel. :  418 228-9610,"Français, Anglais, Espagnol",https://maps.app.goo.gl/pbjChUSeWnVRpNyp6,https://www.cjebeauce-sud.com,"Carrefour Jeunesse-Emploi de Beauce-Sud (Saint-Éphrem) 34, route 271 sud Saint-Éphrem (Chaudière-Appalaches) G0M 1R0 Tel. :  418 228-9610 Fax :  418 227-9007"
Carrefour Jeunesse-Emploi de Beauce-Sud (Saint-Georges),Tel. :  418 228-9610,"Français, Anglais, Espagnol, Arabe, Allemand","http://maps.google.ca/maps?q=11920, 1ère Avenue Saint-Georges, Québec G5Y2E1",https://www.cjebeauce-sud.com,"Carrefour Jeunesse-Emploi de Beauce-Sud (Saint-Georges) 11920, 1ère Avenue Saint-Georges (Chaudière-Appalaches) G5Y 2E1 Tel. :  418 228-9610 Fax :  418 227-9007"
CARREFOUR JEUNESSE-EMPLOI DE FRONTENAC,Tel. :  418 335-0802,"Français, Anglais, Espagnol, Arabe",https://goo.gl/maps/zHokASGhMCfGWVyp6,https://www.cjefrontenac.com,"CARREFOUR JEUNESSE-EMPLOI DE FRONTENAC 257, Notre dame Ouest Thetford Mines (Chaudière-Appalaches) G6G 1J7 Tel. :  418 335-0802"
Carrefour Jeunesse-Emploi de L'Outaouais,Tel. :  819 561-7712,"Français, Anglais","http://maps.google.ca/maps?q=350, boulevard de La Gappe Gatineau, Québec J8T7T9",https://www.cjeo.qc.ca,"Carrefour Jeunesse-Emploi de L'Outaouais 350, boulevard de La Gappe Gatineau (Outaouais) J8T 7T9 Tel. :  819 561-7712 Fax :  819 561-1455"
Carrefour jeunesse-emploi des Îles,Tel. :  418 986-2536,"Français, Anglais",https://maps.app.goo.gl/QYSEQhR139FrzSdB8,https://www.cjedesiles.com/,"Carrefour jeunesse-emploi des Îles 210, chemin Principal Cap-aux-Meules (Gaspésie-Îles-de-la-Madeleine) G4T 1C7 Tel. :  418 986-2536 Fax :  418 986-2522"
Carrefour Jeunesse-emploi des Laurentides,Tel. :  819 425-1200,"Français, Anglais, Espagnol",https://maps.app.goo.gl/cJVjsa9LFkzZLMyy9,https://cjelaurentides.org/,Carrefour Jeunesse-emploi des Laurentides 97 rue Principale Est Sainte-Agathe-des-Monts  (Laurentides) J8C 1J9 Tel. :  819 425-1200
Carrefour Jeunesse-emploi des Laurentides (Mont-Tremblant),Tel. :  819 425-1200,"Français, Anglais, Espagnol",https://maps.app.goo.gl/ShM72fFmwJ84VSYS6,https://cjelaurentides.org/,"Carrefour Jeunesse-emploi des Laurentides (Mont-Tremblant) 763, Rue de Saint-Jovite Mont-Tremblant  (Laurentides) J8E 3J8 Tel. :  819 425-1200"
Carrefour Jeunesse-Emploi du Témiscamingue,Tel. :  819 622-2538,Français,https://goo.gl/maps/rXfKsHmHU81HQWfy8,https://cjet.qc.ca,"Carrefour Jeunesse-Emploi du Témiscamingue 4, rue Saint Michel Ville-Marie (Abitibi-Témiscamingue) J9V 2B5 Tel. :  819 622-2538 Fax :  819 622-2320"
Carrefour Jeunesse-emploi Les Etchemins,Tel. :  418 625-2533,"Français, Anglais, Espagnol","https://www.google.com/maps/place/1554+QC-277,+Lac-Etchemin,+QC+G0R+1S0/@46.403055,-70.5245913,17z/data=!3m1!4b1!4m5!3m4!1s0x4cb90a7be6186e5b:0x2245eba68489695b!8m2!3d46.4030513!4d-70.5224026",https://www.cjeetchemins.ca,"Carrefour Jeunesse-emploi Les Etchemins 1554, route 277 Lac-Etchemin (Chaudière-Appalaches) G0R 1S0 Tel. :  418 625-2533 Fax :  418 625-2534"
Carrefour Jeunesse-emploi Les Etchemins,Tel. :  418 625-2533,"Français, Anglais, Espagnol",https://maps.app.goo.gl/VaWFxEuGaDVN89ss5,https://www.cjeetchemins.ca,Carrefour Jeunesse-emploi Les Etchemins 135 Principale Sainte-Justine (Chaudière-Appalaches) G0R 1Y0 Tel. :  418 625-2533 Fax :  418 625-2534
Carrefour Jeunesse-Emploi MRC La Côte-de-Gaspé,Tel. :  418 368-2121,"Français, Anglais, Espagnol",https://maps.app.goo.gl/ZgyA4my9nAWabp6Z7,https://www.cjecotedegaspe.ca,"Carrefour Jeunesse-Emploi MRC La Côte-de-Gaspé 122, boulevard de Gaspé Gaspé (Gaspésie-Îles-de-la-Madeleine) G4X 1A9 Tel. :  418 368-2121"
Carrefour Jeunesse-Emploi Saguenay Inc. (La Baie),Tel. :  418 697-0271,"Français, Anglais fonctionnel","https://www.google.com/maps/place/942+Rue+de+la+Fabrique,+La+Baie,+QC+G7B+2T1/data=!4m2!3m1!1s0x4cc01ea5dd2b4b03:0x77cba5c28ff59442?sa=X&ved=2ahUKEwjRn4Xm9Y7tAhV3F1kFHTFyD9EQ8gEwAHoECAQQAQ",https://www.cjesag.qc.ca,"Carrefour Jeunesse-Emploi Saguenay Inc. (La Baie) 942, rue de la Fabrique La Baie (Saguenay-Lac-Saint-Jean) G7B 2T1 Tel. :  418 697-0271 Fax :  418 697 -0271"
Carrefour Le Moutier,Tel. :  450 679-7111,"Français, Anglais, Espagnol, Perse, Arabe, Créole, Kirundi, Kinyarwanda, Farsi","https://www.google.com/maps/place/219+Rue+Saint-Charles+O,+Longueuil,+QC+J4H+1E1/@45.5380089,-73.5125354,17z/data=!3m1!4b1!4m5!3m4!1s0x4cc91b65fca6eee7:0xd328839296587814!8m2!3d45.5380089!4d-73.5103467",https://www.carrefourmoutier.org,Carrefour Le Moutier 219 rue Saint-Charles Ouest Longueuil (Montérégie) J4H 1E1 Tel. :  450 679-7111 Fax :  450 679-5562
Centre Alpha Lira Inc.,Tel. :  418 968-9843,"Français, Anglais, Arabe, Espagnol, Malgache","http://maps.google.ca/maps?q=460A, place du Commerce Sept-îles, Québec G4R2Z6",https://www.centrealphalira.org,"Centre Alpha Lira Inc. 425, avenue Arnaud Sept-Îles (Côte-Nord) G4R 3B3 Tel. :  418 968-9843 Fax :  418 968-0990"
Centre Communautaire des Femmes Sud-Asiatiques,Tel. :  514 528-8812,"Français, Anglais, Bangali, Perse, Turc, Hindi, Urdu, Pundjabi, Tamoul","http://maps.google.ca/maps?q=1035, rue Rachel Est, 3e étage Montréal, Québec H2J2J5",https://www.Sawcc-ccfsa.ca,"Centre Communautaire des Femmes Sud-Asiatiques 1035, rue Rachel Est Montréal (Montréal) H2J 2J5 Tel. :  514 528-8812 Fax :  514 528-0896"
Centre Communautaire Petit Espoir,Tel. :  450 936-1922,"Français, Anglais, Italien, Ukrainien","https://www.google.com/maps/place/1235+Mont%C3%A9e+du+Moulin,+Laval,+QC+H7A+3V6/@45.6770065,-73.5838969,17z/data=!3m1!4b1!4m5!3m4!1s0x4cc8e0f496d9bf41:0x4117bddb16e87e4a!8m2!3d45.6770028!4d-73.5817082",https://www.petitespoir.org,"Centre Communautaire Petit Espoir 1235, rue Montée du Moulin Laval (Laval) H7A 3V6 Tel. :  450 936-1922 Fax :  450 936-1923"
Centre d'Action Bénévole de Montréal-Nord,Tel. :  514 328-1114,"Français, Anglais, Arabe, Créole (Haïtien), Espagnol, Kabyle, Kinyardwanda, Kirundi, Kiswahili, Italien","http://maps.google.ca/maps?q=4642, rue Forest Montréal-Nord, Québec H1H2P3",https://www.cabmtl-nord.org,"Centre d'Action Bénévole de Montréal-Nord 4642, rue Forest Montréal (Montréal) H1H 2P3 Tel. :  514 328-1114 Fax :  514 328-4850"
Centre d'Action Socio-Communautaire de Montréal,Tel. :  514 842-8045,"Français, Anglais, Espagnol, Portugais","http://maps.google.ca/maps?q=32, boulevard Saint-Joseph Ouest Montréal, Québec H2T2P3",https://www.cascmontreal.ca,"Centre d'Action Socio-Communautaire de Montréal 32, boulevard Saint-Joseph Ouest Montréal (Montréal) H2T 2P3 Tel. :  514 842-8045 Fax :  514 842-2356"
Centre D'appui Aux Communautés Immigrantes De Bordeaux-Cartierville,Tel. :  515 856-3511,"Français, Anglais, Arménien, Espagnol, Arabe, Berbère, Kabyle, Ukrainien, Russe: Créole (haïtien), Créole (mauricien), Hindi, Ourdou, Albanais, Wolof, Bansoa, Bandjoun, Bafang, Bamejoun, Bameka, Bamiliké, Mandarin, Malayalam, Roumain, Italien: Moldave, Turc, Persan",https://maps.app.goo.gl/LBtk7fzG7UKYYokL7,https://www.caci-bc.org,"Centre D'appui Aux Communautés Immigrantes De Bordeaux-Cartierville 4800, rue de Salaberry Montréal (Montréal) H4J 2P1 Tel. :  515 856-3511 Fax :  515 856-6029"
Centre D'appui Aux Communautés Immigrantes De Bordeaux-Cartierville,"Tel. :  514 856-3511, Ext. 11","Français, Anglais, Arménien, Espagnol, Arabe, Berbère, Kabyle, Ukrainien, Russe, Créole (haïtien), Créole (mauricien), Hindi, Ourdou, Albanais, Wolof, Bansoa, Bandjoun, Bafang, Bamejoun, Bameka, Bamiliké, Mandarin, Malayalam, Roumain, Italien, Moldave, Turc, Persan","https://www.google.com/maps/place/12049+Blvd.+Laurentien,+Montreal,+QC+H4K+1M8/@45.5267857,-73.7186283,17z/data=!3m1!4b1!4m5!3m4!1s0x4cc9236dffd7cd99:0x9ac110043ce037a4!8m2!3d45.5267857!4d-73.7164396",https://www.caci-bc.org,"Centre D'appui Aux Communautés Immigrantes De Bordeaux-Cartierville 12049, boul. Laurentien Montréal (Montréal) H4K 1M8 Tel. :  514 856-3511, Ext. 11 Fax :  514 856-6029"
Centre d'Intégration Multi-Services de l'Ouest-De-l'Île (C.I.M.O.I) Dorval,Tel. :  514 305-1414,"Français, Anglais, Arabe, Espagnol, Hindi, Mandarin, Allemand, Penjabi, Polonais, Hongrois, Urdu","https://www.google.ca/maps/place/1425+Rte+Transcanadienne,+Dorval,+QC+H9P+2W9/@45.4891371,-73.7776691,17z/data=!3m1!4b1!4m5!3m4!1s0x4cc93cdf95323dd5:0xeb48a337fcd8f21f!8m2!3d45.4891334!4d-73.7754804",https://www.cimoi.com,"Centre d'Intégration Multi-Services de l'Ouest-De-l'Île (C.I.M.O.I) Dorval 1425, route Transcanadienne Dorval (Montréal) H9P 2W9 Tel. :  514 305-1414 Fax :  514 542-0563"
Centre d'Intégration Multi-services de L’Ouest-de-l’Île  (C.I.M.O.I) (Alexander),Tel. :  514 685-3000,"Français, Anglais, Arabe, Espagnol, Hindi, Mandarin, Allemand, Penjabi, Polonais, Hongrois, Urdu","https://www.google.com/maps/place/4734+Rue+Alexander,+Pierrefonds,+QC+H8Y+2B1/@45.5040577,-73.7814483,17z/data=!3m1!4b1!4m5!3m4!1s0x4cc93ccdf344a2b5:0x9c408215f57dc71b!8m2!3d45.5040577!4d-73.7792596",https://www.cimoi.com,"Centre d'Intégration Multi-services de L’Ouest-de-l’Île  (C.I.M.O.I) (Alexander) 4734, rue Alexander Pierrefonds (Montréal) H8Y 2B1 Tel. :  514 685-3000 Fax :  514 684-0002"
Centre d'Intégration Multi-services de L’Ouest-de-l’Île  (C.I.M.O.I) (Pierrefonds),Tel. :  514 305-1616,"Français, Anglais, Arabe, Espagnol, Hindi, Mandarin, Allemand, Penjabi, Polonais, Hongrois, Urdu","http://maps.google.ca/maps?q=4734, rue Alexander Pierrefonds, Québec H8Y2B1",https://www.cimoi.com,"Centre d'Intégration Multi-services de L’Ouest-de-l’Île  (C.I.M.O.I) (Pierrefonds) 15650, boulevard de Pierrefonds Pierrefonds (Montréal) H9H 4K3 Tel. :  514 305-1616 Fax :  514 305-1919"
Centre de bénévolat St-Alphonse-Nouvelle inc,Tel. :  418 759-3131,"Français, Anglais",https://maps.app.goo.gl/cy2GQicQmYdHfttMA,https://www.cabmaria.com/,"Centre de bénévolat St-Alphonse-Nouvelle inc 549, boulevard Perron Maria (Gaspésie-Îles-de-la-Madeleine) G0C 1Y0 Tel. :  418 759-3131"
Centre de Formation Option-Travail Ste-Foy,Tel. :  418 651-6415,"Français, Espagnol, Anglais, Arabe","http://maps.google.ca/maps?q=2750, chemin Sainte-Foy, bureau 295 Québec, Québec G1V1V6",https://www.optiontravail.com,"Centre de Formation Option-Travail Ste-Foy 2750, chemin Sainte-Foy Québec (Capitale-Nationale) G1V 1V6 Tel. :  418 651-6415 Fax :  418 651-7500"
Centre Des Femmes De Montréal,Tel. :  514 842-1066,"Français, Anglais, Arabe, Créole (Haïtien), Espagnol","http://maps.google.ca/maps?q=3585, rue Saint-Urbain Montréal, Québec H2X2N6",https://www.centredesfemmesdemtl.org,"Centre Des Femmes De Montréal 3585, rue Saint-Urbain Montréal (Montréal) H2X 2N6 Tel. :  514 842-1066 Fax :  514 842-1067"
Centre Local de Développement de la Région de Rivière-Du-Loup,Tel. :  418 862-1823,"Français, Anglais, Espagnol","http://maps.google.ca/maps?q=310, rue Saint-Pierre, bureau RC-01 Rivière-du-Loup, Québec G5R3V3",https://cldriviereduloup.com/immigration/,"Centre Local de Développement de la Région de Rivière-Du-Loup 310, rue Saint-Pierre Rivière-du-Loup (Bas-Saint-Laurent) G5R 3V3 Tel. :  418 862-1823 Fax :  418 862-3726"
Centre Multiethnique de Québec Inc.,"Tel. :  418 687-9771, Ext. 203","Français, Anglais, Espagnol, Swahili, Lingala, Arabe, Russe, Népalais, Bosniaque, Mandarin, Bhoutanais, Italien, Ukrainien, Polonais, Serbo-Croate","http://maps.google.ca/maps?q=200, rue Dorchester Québec, Québec G1K5Z1",https://www.centremultiethnique.com,"Centre Multiethnique de Québec Inc. 200, rue Dorchester Québec (Capitale-Nationale) G1K 5Z1 Tel. :  418 687-9771, Ext. 203 Fax :  418 687-9063"
Centre R.I.R.E. 2000,"Tel. :  418 524-5609, Ext. 221","Français, Anglais, Espagnol, Swahili, Arabe","http://maps.google.ca/maps?q=369, rue de la Couronne, 3e étage Québec, Québec G1K 6E9",https://www.r2000.qc.ca,"Centre R.I.R.E. 2000 369, rue de la Couronne Québec (Capitale-Nationale) G1K 6E9 Tel. :  418 524-5609, Ext. 221 Fax :  418 521-7305"
Centre Social d'Aide aux Immigrants (Île-Des-Soeurs),Tel. :  514 932-2953,"Français, Anglais, Espagnol, Arabe, Pendjabi, Farsi, Urdu","https://www.google.ca/maps/place/40+Pl.+du+Commerce,+Verdun,+QC+H3E+1J6/@45.4668592,-73.5454156,17z/data=!3m1!4b1!4m5!3m4!1s0x4cc9100c9ac09755:0x2b24451d004a434!8m2!3d45.4668555!4d-73.5432269?hl=fr",https://www.centrecsai.org,"Centre Social d'Aide aux Immigrants (Île-Des-Soeurs) 40, Place du Commerce Montréal (Montréal) H3E 1J6 Tel. :  514 932-2953 Fax :  514 932-4544"
Centre Social d'Aide aux Immigrants (Lachine),Tel. :  514 932-2953,"Français, Anglais, Espagnol, Pendjabi, Urdu","https://www.google.com/maps/place/735+Rue+Notre+Dame,+Lachine,+QC+H8S+2B3/@45.4348204,-73.6726443,17z/data=!3m1!4b1!4m5!3m4!1s0x4cc916eaa48afc25:0x13c72ed267c2fbef!8m2!3d45.4348204!4d-73.6704556",https://www.centrecsai.org,Centre Social d'Aide aux Immigrants (Lachine) 735 rue Notre-Dame Montréal (Montréal) H8S 2B5 Tel. :  514 932-2953 Fax :  514 932-4544
Centre Social d'Aide aux Immigrants (Verdun),Tel. :  514 932-2953,"Français, Anglais, Espagnol, Arabe, Farsi, Mandarin, Farsi, Ukrainien","https://www.google.ca/maps/place/3782+Rue+Wellington,+Verdun,+QC+H4G+1V2",https://www.centrecsai.org,"Centre Social d'Aide aux Immigrants (Verdun) 3782, rue Wellington Montréal (Montréal) H4G 1V2 Tel. :  514 932-2953 Fax :  514 932-4544"
Centre Social d'Aide aux Immigrants (Ville-Émard),Tel. :  514 932-2953,"Français, Anglais, Espagnol, Arabe, Farsi, Wolof, Dari, Hindi, Pendjabi, Ourdou, Roumain, Portugais, Arménien, Lingala, Ukrainien, Swahili, Kikongo, Serbo-Croate, Turc, Fon, Bambara, Berbère, Espéranto, Italien, Russe, Allemand, Créole, Pashto, Vitnamien","http://maps.google.ca/maps?q=6201, rue Laurendeau Montréal, Québec H4E3X8",https://www.centrecsai.org,"Centre Social d'Aide aux Immigrants (Ville-Émard) 6201, rue Laurendeau Montréal (Montréal) H4E 3X8 Tel. :  514 932-2953 Fax :  514 932-4544"
Centre-Émersion (Manicouagan) Inc.,Tel. :  418 296-6388,"Français, Anglais, Allemand, Espagnol","http://maps.google.ca/maps?q=22, Place La Salle Baie-Comeau, Québec G4Z1K3",https://www.emersion.qc.ca,"Centre-Émersion (Manicouagan) Inc. 22, Place La Salle Baie-Comeau (Côte-Nord) G4Z 1K3 Tel. :  418 296-6388 Fax :  418 296-0724"
CJE Charlesbourg-Chauveau,Tel. :  418 623-3300,Français,https://maps.app.goo.gl/WRhkZHgZamyjHF416,https://www.cjecc.org/,"CJE Charlesbourg-Chauveau 8500, boulevard Henri-Bourassa, Québec (Québec) Charlesbourg (Capitale-Nationale) G1G 5X1 Tel. :  418 623-3300 Fax :  418 623-3340"
CJE de Memphrémagog,Tel. :  819 843-3007,"Français, Anglais",https://maps.app.goo.gl/EDNayCbmd8F7mqv6A,https://www.cjemm.com/,CJE de Memphrémagog 95 rue Jean-Paul II Magog (Estrie) J1X 1E4 Tel. :  819 843-3007
Clef pour l'Intégration au Travail des Immigrants,Tel. :  515 987-1759,"Français, Anglais",https://maps.app.goo.gl/iYvraNs9Q3uAzvEW9,https://www.citim.org,"Clef pour l'Intégration au Travail des Immigrants 1259, rue Berri Montréal (Montréal) H2L 4C7 Tel. :  515 987-1759"
Collectif des Femmes Immigrantes du Québec,Tel. :  514 279-4246,"Français, Cambodgien, Arabe, Créole (Haïtien), Espagnol, Ukrainien, Kirundi","http://maps.google.ca/maps?q=7124, rue Boyer Montréal, Québec H2S2J8",https://www.cfiq.ca,"Collectif des Femmes Immigrantes du Québec 7124, rue Boyer Montréal (Montréal) H2S 2J8 Tel. :  514 279-4246 Fax :  514 279-8536"
Comité d'Accueil International Des Bois-Francs,Tel. :  819 795-3814,"Français, Anglais, Arabe, Espagnol","https://www.google.ca/maps/place/Comit%C3%A9+d'accueil+international+des+Bois-Francs/@46.0609943,-71.9502825,17z/data=!3m1!4b1!4m5!3m4!1s0x4cb8016c40026b43:0x1eadf7881b4b3459!8m2!3d46.0609813!4d-71.9481834",https://www.caibf.ca,"Comité d'Accueil International Des Bois-Francs 49, rue De Courval Victoriaville (Centre-du-Québec) G6P 4W6 Tel. :  819 795-3814 Fax :  819 795-4494"
Comité Régional d'Éducation pour le Développement International Lanaudière,"Tel. :  450 756-0011, Ext. 224","Français, Anglais, Arabe, Espagnol","http://maps.google.ca/maps?q=101, rue Dugas Joliette, Québec J6E4G7",https://www.credil.qc.ca,"Comité Régional d'Éducation pour le Développement International Lanaudière 101, rue Dugas Joliette (Lanaudière) J6E 4G7 Tel. :  450 756-0011, Ext. 224 Fax :  450 756-0489"
Corporation de Développement Économique de la MRC de Montmagny,"Tel. :  418 248-5985, Ext. 240","Français, Anglais, Espagnol, Italien, Portugais","http://maps.google.ca/maps?q=6, rue Saint-Jean-Baptiste Est, bureau 300 Montmagny,  G5V1J7",https://www.montmagnyaccueille.com,"Corporation de Développement Économique de la MRC de Montmagny 6, rue Saint-Jean-Baptiste Est Montmagny (Chaudière-Appalaches) G5V 1J7 Tel. :  418 248-5985, Ext. 240 Fax :  418 248-9334"
CRESO Centre-Conseil en Emploi (Beauharnois),Tel. :  452 377-4889,"Français, Anglais, Espagnol","https://www.google.com/maps/place/640+Rue+Ellice,+Beauharnois,+QC+J6N+0T2/@45.3128034,-73.8793093,17z/data=!3m1!4b1!4m5!3m4!1s0x4cc9410a3e3cff31:0x3b2a507520fa31d4!8m2!3d45.3127996!4d-73.8771206",https://www.creso-emploi.ca,"CRESO Centre-Conseil en Emploi (Beauharnois) 640, rue Ellice, 2e étage Beauharnois (Montérégie) J6N 0T2 Tel. :  452 377-4889 Fax :  451 377-5199"
CRESO Centre-Conseil en Emploi (Huntingdon),Tel. :  451 377-4889,"Français, Anglais, Espagnol","https://www.google.com/maps/place/72+Rue+Dalhousie,+Huntingdon,+QC+J0S+1H0/@45.0907957,-74.1816962,17z/data=!4m5!3m4!1s0x4ccbfd445ba604f9:0xda3c2129a2283f0d!8m2!3d45.0907919!4d-74.1791427",https://www.creso-emploi.ca,"CRESO Centre-Conseil en Emploi (Huntingdon) 72, rue Dalhousie Huntingdon (Montérégie) J0S 1H0 Tel. :  451 377-4889 Fax :  450 377-5199"
CRESO Centre-Conseil en Emploi (Salaberry-De-Valleyfield),Tel. :  450 377-4889,"Français, Anglais, Espagnol","https://www.google.ca/maps/place/CRESO+-+Centre-conseil+en+emploi/@45.2566031,-74.1288397,17z/data=!3m1!4b1!4m5!3m4!1s0x4cc94e2eb85f89f7:0x431384c084116e2e!8m2!3d45.2566459!4d-74.1266878",https://www.creso-emploi.ca,"CRESO Centre-Conseil en Emploi (Salaberry-De-Valleyfield) 139, rue Victoria Salaberry-de-Valleyfield (Montérégie) J6T 1A4 Tel. :  450 377-4889 Fax :  450 377-5199"
DÉVELOPPEMENT MAURICIE INC.,Tel. :  418 365-8252,Français,https://goo.gl/maps/7deDTQS4Vkqicwh89,https://www.developpement.com,"DÉVELOPPEMENT MAURICIE INC. 12443, Hart Trois-Rivières (Mauricie) G9A 4S4 Tel. :  418 365-8252"
Droit À L'emploi (D.E.) (Saint-Jean-Sur-Richelieu),Tel. :  450 347-6101,"Français, Anglais, Espagnol, Arabe, Berbère, Créole (Haïtien), Laotien, Portugais, Ukrainien, Russe","http://maps.google.ca/maps?q=49, rue Saint-Jacques Saint-Jean-sur-Richelieu, Québec J3B 2J8",https://www.coffre.ca,"Droit À L'emploi (D.E.) (Saint-Jean-Sur-Richelieu) 49, rue Saint-Jacques Saint-Jean-sur-Richelieu (Montérégie) J3B 2J8 Tel. :  450 347-6101 Fax :  450 347-1198"
Femmes en emploi,Tel. :  450 490-4895,"Français, Anglais, Espagnol, Créole, Arabe",https://goo.gl/maps/sGY5to8CgHkfzHNb7,https://www.femmesenemploi.org,"Femmes en emploi 1688, boulevard des Laurentides Laval (Laval) H7M 2P4 Tel. :  450 490-4895"
Groupe Inclusia (Chicoutimi),Tel. :  418 548-3445,"Français, Anglais, Espagnol, Arabe","https://www.google.com/maps/place/245+Rue+Riverin+%23110,+Chicoutimi,+QC+G7H+4R6/@48.4281623,-71.057051,17z/data=!3m1!4b1!4m5!3m4!1s0x4cc020b2d6eaeb39:0xc99a731e11ae0ae4!8m2!3d48.4281588!4d-71.0548623",https://www.groupeinclusia.com,Groupe Inclusia (Chicoutimi) 245 rue Riverin Ville Saguenay (Saguenay-Lac-Saint-Jean) G7H 4R6 Tel. :  418 548-3445
Groupe Inclusia (Jonquière),Tel. :  418 548-3445,"Français, Anglais, Espagnol, Arabe","https://www.google.ca/maps/place/2303+Rue+Sir+Wilfrid+Laurier,+Jonqui%C3%A8re,+QC+G7X+5Z2/@48.4094238,-71.2530876,17z/data=!3m1!4b1!4m5!3m4!1s0x4cc02920858df7d3:0xf0383d5be0a4e91d!8m2!3d48.4094203!4d-71.2508989",https://www.groupeinclusia.com,"Groupe Inclusia (Jonquière) 2455, rue Cantin Jonquière (Saguenay-Lac-Saint-Jean) G7X 8S7 Tel. :  418 548-3445 Fax :  418 548-3717"
Haute Gaspésie Me Voici,Tel. :  418 763-7791,"Français, Anglais, Arabe, Allemand","https://www.google.com/maps/place/464+Bd+Ste+Anne+O,+Sainte-Anne-des-Monts,+QC+G4V+1T5/@49.1228874,-66.528824,17z/data=!3m1!4b1!4m5!3m4!1s0x4c90c521c3a29dc9:0xee739f79546813d7!8m2!3d49.1228874!4d-66.528824",,"Haute Gaspésie Me Voici 464, boulevard Sainte-Anne Ouest Sainte-Anne-des-Monts (Gaspésie-Îles-de-la-Madeleine) G4V 1T5 Tel. :  418 763-7791"
Horizon Emploi,Tel. :  418 534-3714,"Français, Anglais",https://maps.app.goo.gl/iSp46n8NN79KFvHc9,https://www.horizonemploi.com/,"Horizon Emploi 105, avenue Grand-Pré Bonaventure (Gaspésie-Îles-de-la-Madeleine) GOC 1E0 Tel. :  418 534-3714"
Impact Emploi de l'Érable,Tel. :  819 362-1233,"Français, Anglais, Espagnol","https://www.google.com/maps/place/Impact+Emploi+de+L'%C3%89rable/@46.2226904,-71.7759677,17z/data=!3m1!4b1!4m5!3m4!1s0x4cb80dd1eb9611db:0xcf77d143376f922!8m2!3d46.2226913!4d-71.7737716",https://www.impactemploi.ca,"Impact Emploi de l'Érable 1800, avenue Saint-Laurent Plessisville (Centre-du-Québec) G6L 2P8 Tel. :  819 362-1233 Fax :  819 362-1572"
INICI,Tel. :  514 255-3900,"Français, Anglais, Espagnol, Arabe, Portugais, Roumain, Kirundi, Senoufou, Dioula, Kiryanwanda",https://maps.app.goo.gl/eCAYkfbjxdKLqxVQ7,https://www.alpaong.com/,"INICI 2030, Boulevard Pie IX Montréal (Montréal) H1V 2C8 Tel. :  514 255-3900"
Intégration Compétences,Tel. :  449 464-4481,"Français, Anglais, Espagnol, Ukrainien, Russe, Italien, Roumain",https://maps.app.goo.gl/ghsJpmAb18DkRHSB8,https://www.integrationcompetences.ca,Intégration Compétences CEAP Beloeil Intégration sociale 866 rue Laurier Beloeil (Montérégie) J3G 4K7 Tel. :  449 464-4481 Fax :  449 464-8455
Intégration Compétences,Tel. :  447 464-4481,"Français, Anglais, Espagnol, Ukrainien, Russe, Italien, Roumain",https://maps.app.goo.gl/jtKtN1YhE3f5wNLL6,https://www.integrationcompetences.ca,Intégration Compétences CEAP Saint Bruno 1430 rue de Montarville Saint-Bruno-de-Montarville (Montérégie) J3V 3T5 Tel. :  447 464-4481 Fax :  447 464-8455
Intégration Compétences,Tel. :  447 464-4481,"Français, Anglais, Espagnol, Ukrainien, Russe, Italien, Roumain",https://maps.app.goo.gl/yqtAvjd3mGo1dcFx9,https://www.integrationcompetences.ca,Intégration Compétences CEAP Varennes 20 rue Vincent Varennes (Montérégie) J3X 1R8 Tel. :  447 464-4481 Fax :  447 464-8455
Intégration Compétences,Tel. :  447 464-4481,"Français, Anglais, Espagnol, Ukrainien, Russe, Italien, Roumain",https://maps.app.goo.gl/reMYbXss8oRaE7EU9,https://www.integrationcompetences.ca,"Intégration Compétences La Relance 500, rue du Docteur Poulin Marieville (Montérégie) J3M 1J5 Tel. :  447 464-4481 Fax :  447 464-8455"
Intégration Compétences (Beloeil),Tel. :  450 464-4481,"Français, Anglais, Espagnol, Ukrainien, Russe, Italien, Roumain","https://www.google.ca/maps/place/285+Bd+Cartier,+Beloeil,+QC+J3G+3R2/@45.5545161,-73.2162508,17z/data=!3m1!4b1!4m5!3m4!1s0x4cc9aaef33c7e807:0x1a47975d28e9cb6e!8m2!3d45.5545161!4d-73.2140621",https://www.integrationcompetences.ca,"Intégration Compétences (Beloeil) 287, boulevard Cartier Beloeil (Montérégie) J3G 3R2 Tel. :  450 464-4481 Fax :  450 464-8455"
Intégration Compétences (Chambly),Tel. :  450 464-4481,"Français, Anglais, Espagnol, Ukrainien, Russe, Italien, Roumain","https://www.google.ca/maps/place/1179+Av.+Bourgogne,+Chambly,+QC+J3L+1X3/@45.4563772,-73.3036121,17z/data=!3m1!4b1!4m5!3m4!1s0x4cc9a81881aecd8f:0x61aba84cb099134c!8m2!3d45.4563772!4d-73.3014234",https://www.integrationcompetences.ca,Intégration Compétences (Chambly) 1179 rue Bourgogne Chambly (Montérégie) J3L 1X3 Tel. :  450 464-4481 Fax :  450 447-2037
Intégration Compétences (McMasterville),Tel. :  448 464-4481,"Français, Anglais, Espagnol, Ukrainien, Russe, Italien, Roumain",https://maps.app.goo.gl/xaqHvC7gAYzhrhBc7,https://www.integrationcompetences.ca,"Intégration Compétences (McMasterville) CEAP McMasterville Intégration sociale 720 rue Morin, porte E McMasterville (Montérégie) J3G 1H1 Tel. :  448 464-4481 Fax :  448 464-8455"
Intégration Compétences (Sainte-Julie),Tel. :  447 464-4481,"Français, Anglais, Espagnol, Ukrainien, Russe, Italien, Roumain",https://maps.app.goo.gl/33pHJmmVPPaaSmgr6,https://www.integrationcompetences.ca,Intégration Compétences (Sainte-Julie) 500 avenue Jules-Choquet Sainte-Julie (Montérégie) J3E 1W6 Tel. :  447 464-4481 Fax :  447 464-8455
Intro Drummondville Inc,Tel. :  819 472-8333,"Français, Anglais, Arabe, Espagnol","https://www.google.com/maps/dir/45.5517399,-73.6165888/INTRO+DRUMMONDVILLE+INC/@45.6967368,-73.6188991,9z/data=!3m1!4b1!4m9!4m8!1m1!4e1!1m5!1m1!1s0x4cc81114d0ed8127:0x3bfe20303a086174!2m2!1d-72.4908373!2d45.8864027",https://introdrummondville.ca,"Intro Drummondville Inc 142, rue Hériot Drummondville (Centre-du-Québec) J2C 1J8 Tel. :  819 472-8333"
Jardin Humani-Terre,Tel. :  450 439-3654,"Français, Anglais, Espagnol",https://maps.app.goo.gl/Y9pXnvrtY7BqXczs8,https://jardinhumani-terre.ca/,Jardin Humani-Terre 1172 Rang Double Saint-Lin-Laurentides (Laurentides) J5M 1X8 Tel. :  450 439-3654
Kif-Kif Familles Mobilisées en Action,Tel. :  581 745-2164,"Français, Arabe, Créole, Anglais","https://www.google.com/maps/place/3148+Chem.+Royal,+Qu%C3%A9bec,+QC+G1E+2V9/@46.8499409,-71.2130457,17z/data=!3m1!4b1!4m5!3m4!1s0x4cb8bdee9b23d897:0x6b8b1802e50f280b!8m2!3d46.8499373!4d-71.210857",https://www.facebook.com/KifKifFamilles,"Kif-Kif Familles Mobilisées en Action 3148, Chemin Royal Québec (Beauport) (Capitale-Nationale) G1E 1V2 Tel. :  581 745-2164"
"L'Hirondelle, Services d'Accueil Et d'Intégration des Immigrants",Tel. :  514 281-5696,"Français, Anglais, Espagnol, Arabe, Mandarin, Russe, Farsi, Tchèque, Allemand, Ukrainien, Portugais, Roumain, Créole","https://www.google.ca/maps/place/4450+Rue+St-Hubert,+Montr%C3%A9al,+QC+H2J+2W9/@45.524902,-73.6152801,13z/data=!4m19!1m13!4m12!1m3!2m2!1d-73.5801754!2d45.5258641!1m6!1m2!1s0x4cc91bd02ddc653f:0x23a3b35bba4764dc!2s4450+Rue+Saint-Hubert,+Montr%C3%A9al,+QC!2m2!1d-73.5802608!2d45.5249074!3e0!3m4!1s0x4cc91bd02ddc653f:0x23a3b35bba4764dc!8m2!3d45.5249074!4d-73.5802608?hl=fr",https://www.hirondelle.qc.ca,"L'Hirondelle, Services d'Accueil Et d'Intégration des Immigrants 4450, rue Saint-Hubert Montréal (Montréal) H2J 2W9 Tel. :  514 281-5696 Fax :  514 521-0234"
"L'HIRONDELLE, SERVICES D'ACCUEIL ET D'INTEGRATION DES IMMIGRANTS (Jean-Talon)",Tel. :  514 281-5696,"Français, Anglais, Espagnol, Arabe, Mandarin, Russe, Farsi, Tchèque, Allemand, Ukrainien, Portugais, Roumain, Créole",https://goo.gl/maps/3ZwDjXj13e5r67jH8,https://www.hirondelle.qc.ca,"L'HIRONDELLE, SERVICES D'ACCUEIL ET D'INTEGRATION DES IMMIGRANTS (Jean-Talon) 445, Jean-Talon Ouest Montréal (Montréal) H3N 1R1 Tel. :  514 281-5696 Fax :  514 521-0234"
"L'Hirondelle, Services d'Accueil Et d'Intégration Des Immigrants (Jeanne-mance)",Tel. :  514 281-2038,"Français, Anglais, Espagnol, Arabe, Mandarin, Russe, Farsi, Tchèque, Allemand, Ukrainien, Portugais, Roumain, Créole",https://maps.app.goo.gl/mzeKCLG4mF3EHgZU9,https://www.hirondelle.qc.ca,"L'Hirondelle, Services d'Accueil Et d'Intégration Des Immigrants (Jeanne-mance) 4652, rue Jeanne-Mance Montréal (Montréal) H2V 4V4 Tel. :  514 281-2038 Fax :  514 521-0234"
"L'Organisme pour l'Intégration, la Citoyenneté et l'Inclusion",Tel. :  514 955-5454,"Français, Anglais, Arabe, Espagnol, Lingala, Créole (Haitien)","https://www.google.com/maps/place/5835+Bd+L%C3%A9ger,+Montr%C3%A9al-Nord,+QC+H1G+6E1/@45.6171933,-73.631666,17z/data=!3m1!4b1!4m5!3m4!1s0x4cc91f922e0eb639:0x8a08f0d3609098ad!8m2!3d45.6171896!4d-73.6294773",https://www.licimontrealnord.org,"L'Organisme pour l'Intégration, la Citoyenneté et l'Inclusion 5835, boulevard Léger Montréal (Montréal) H1G 6E1 Tel. :  514 955-5454"
"L'Orienthèque, Centre d'Orientation et Services d'Intégration de la Main-d'Oeuvre",Tel. :  451 730-0181,"Français, Anglais, Espagnol, Arabe",https://maps.app.goo.gl/cjNQAhi7xk53HqiR9,https://www.orientheque.ca,"L'Orienthèque, Centre d'Orientation et Services d'Intégration de la Main-d'Oeuvre 2531 rue immaculée conception Saint-Ours (Montérégie) J0G 1P0 Tel. :  451 730-0181"
"L'Orienthèque, Centre d'Orientation et Services d'Intégration de la Main-d'Oeuvre",Tel. :  450 730-0181,"Français, Anglais, Espagnol, Arabe",https://maps.app.goo.gl/qF2zixjSPbGAw1LVA,https://www.orientheque.ca,"L'Orienthèque, Centre d'Orientation et Services d'Intégration de la Main-d'Oeuvre 4956 rue Legendre Contrecoeur (Montérégie) J0L 1C0 Tel. :  450 730-0181"
"L'Orienthèque, Centre d'Orientation et Services d'Intégration de la Main-d'Oeuvre",Tel. :  450 730-0181,"Français, Anglais, Espagnol, Arabe","http://maps.google.ca/maps?q=343, boulevard Poliquin Sorel-Tracy, Québec J3P7W1",https://www.orientheque.ca,"L'Orienthèque, Centre d'Orientation et Services d'Intégration de la Main-d'Oeuvre 343, boulevard Poliquin Sorel-Tracy (Montérégie) J3P 7W1 Tel. :  450 730-0181 Fax :  450 730-0669"
La Mosaïque : Association Interculturelle et d'Accueil des Immigrants Inc.,Tel. :  819 763-2263,"Français, Anglais, Espagnol, Allemand",https://goo.gl/maps/pn3AFp1qEUN5kEcb7,https://www.mosaique-at.ca,"La Mosaïque : Association Interculturelle et d'Accueil des Immigrants Inc. 145, avenue Mercier Rouyn-Noranda (Abitibi-Témiscamingue) J9X 4X4 Tel. :  819 763-2263"
Le Carrefour Employabilité - Travail de rue,Tel. :  418 885-0751,"Français, Anglais, Espagnol",https://maps.app.goo.gl/kkC8pKk4qAWse9S49,https://cestmoncarrefour.com/,"Le Carrefour Employabilité - Travail de rue 580, route Bégin Saint-Anselme (Chaudière-Appalaches) G0R 2N0 Tel. :  418 885-0751"
Le Carrefour Employabilité - Travail de rue (Le Joffre – Espace convivial),Tel. :  418 885-0751,"Français, Anglais, Espagnol",https://maps.app.goo.gl/vwMeZX57Ee3aS8rw9,https://cestmoncarrefour.com/,"Le Carrefour Employabilité - Travail de rue (Le Joffre – Espace convivial) 574, route Bégin Saint-Anselme (Chaudière-Appalaches) G0R 2N0 Tel. :  418 885-0751"
"Le Tremplin, Centre pour Personnes Immigrantes et leurs Familles",Tel. :  418 603-3512,"Français, Anglais, Espagnol, Portugais","https://www.google.com/maps/place/39+Rue+Guenette,+L%C3%A9vis,+QC+G6V+5M9/@46.8089499,-71.1825192,17z/data=!3m1!4b1!4m5!3m4!1s0x4cb895bc332f4c3d:0x992a69101895ad0a!8m2!3d46.8089499!4d-71.1803305",https://www.letremplinlevis.com,"Le Tremplin, Centre pour Personnes Immigrantes et leurs Familles 39, rue Guenette Lévis (Chaudière-Appalaches) G6V 5M9 Tel. :  418 603-3512 Fax :  418 603-3511"
Les Services de Main-d'Oeuvre l'Appui Inc. (Baie St-Paul),"Tel. :  418 435-2503, Ext. 230 ou 231","Français, Anglais, Espagnol, Arabe, Wolof",https://maps.app.goo.gl/HtNseLQukSsoYNMB7,https://www.cje-appui.qc.ca,"Les Services de Main-d'Oeuvre l'Appui Inc. (Baie St-Paul) 39, St-Jean-Baptiste Baie-Saint-Paul (Capitale-Nationale) G3Z 1M3 Tel. :  418 435-2503, Ext. 230 ou 231 Fax :  418 435-3739"
Les Services de Main-d'Oeuvre l'Appui Inc. (Beaupré),Tel. :  418 827-8211,"Français, Anglais, Espagnol","https://www.google.com/maps/place/216+Rue+Pr%C3%A9vost,+Beaupr%C3%A9,+QC+G0A+1E0,+Canada/@47.048725,-70.888036,16z/data=!4m5!3m4!1s0x4cb8ca4edaf15563:0x3efc1cbaf3d00f7c!8m2!3d47.0487249!4d-70.8880356?hl=fr-FR",https://www.cje-appui.qc.ca,"Les Services de Main-d'Oeuvre l'Appui Inc. (Beaupré) 216, rue Prévost Beaupré (Capitale-Nationale) G0A 1E0 Tel. :  418 827-8211 Fax :  418 827-2721"
Les Services De Main-d'Oeuvre l'Appui Inc. (La Malbaie),Tel. :  418 665-7745,"Français, Anglais, Espagnol","https://www.google.com/maps/place/460+Rue+St+%C3%89tienne,+La+Malbaie,+QC+G5A+1H4,+Canada/@47.649391,-70.151903,16z/data=!4m5!3m4!1s0x4cbfaa20b66658d1:0xe87fc2939dca28ae!8m2!3d47.6493906!4d-70.1519033?hl=fr-FR",https://www.cje-appui.qc.ca,"Les Services De Main-d'Oeuvre l'Appui Inc. (La Malbaie) 460, rue Saint-Étienne La Malbaie (Capitale-Nationale) G5A 1H4 Tel. :  418 665-7745 Fax :  418 665-7912"
Maison d'Haïti,"Tel. :  514 326-3022, Ext. 230","Français, Anglais, Créole (Haïtien), Espagnol","http://maps.google.ca/maps?q=3245, avenue mile-Journault Montréal, Québec H1Z0B1",https://www.mhaiti.org,"Maison d'Haïti 3245, avenue Émile-Journault Montréal (Montréal) H1Z 0B1 Tel. :  514 326-3022, Ext. 230 Fax :  514 326-3024"
Maison de la famille des arbrisseaux,Tel. :  819 628-0077,"Français, Anglais",https://maps.app.goo.gl/9bkBE3DgFkDTYyg28,http://mfarbrisseaux.com/,"Maison de la famille des arbrisseaux 64, 3e avenue Windsor  (Estrie) J1S 1X9 Tel. :  819 628-0077"
Maison de la Famille des Maskoutains,"Tel. :  450 771-4010, Ext. 26","Français, Anglais, Arabe, Espagnol","http://maps.google.ca/maps?q=2130, avenue Mailhot Saint-Hyacinthe, Québec J2S9E1",https://www.mfm.qc.ca,"Maison de la Famille des Maskoutains 2130, avenue Mailhot Saint-Hyacinthe (Montérégie) J2S 9E1 Tel. :  450 771-4010, Ext. 26 Fax :  450 771-7760"
Maison de la famille Valoise,Tel. :  450 546-4627,"Français, Anglais",https://maps.app.goo.gl/71XdFxLRbMrnyk7K8,https://maisondelafamillevaloise.org/,"Maison de la famille Valoise 962, rue Dubois Acton Vale (Estrie) J0H 1A0 Tel. :  450 546-4627"
Maison des Familles de Mékinac,Tel. :  418 365-4405,Français,"https://www.google.com/maps/place/581+Rue+St+Paul,+Saint-Tite,+QC+G0X+3H0/@46.7290065,-72.561664,17z/data=!3m1!4b1!4m5!3m4!1s0x4cc65566442a5e3f:0x46e247ae07f9d3c6!8m2!3d46.7290065!4d-72.561664",https://www.mdfmekinac.org,"Maison des Familles de Mékinac 581, rue Saint-Paul Saint-Tite (Mauricie) G0X 3H0 Tel. :  418 365-4405"
Maison Internationale de la Rive-Sud Inc (Boucherville),Tel. :  450 445-8777,"Français, Anglais, Espagnol, Arabe, Mandarin, Perse, Kirundi, Swahili, Kinyarwanda, Lingala, Mandarin, Cantonais, Portugais, Créole, Wolof, Ukrainien, Russe, Fon, Barons",https://maps.app.goo.gl/bYedegcwoFaLuC6R6,https://www.mirs.qc.ca,"Maison Internationale de la Rive-Sud Inc (Boucherville) 11 Rue Louis-H.- La Fontaine N, Boucherville (Montérégie) J4B 4Y2 Tel. :  450 445-8777 Fax :  451 445-1222"
Maison Internationale de la Rive-Sud Inc (Boucherville),Tel. :  450 445-8777,"Français, Anglais, Espagnol, Arabe, Mandarin, Perse, Kirundi, Swahili, Kinyarwanda, Lingala, Mandarin, Cantonais, Portugais, Créole, Wolof, Ukrainien, Russe, Fon, Barons",https://maps.app.goo.gl/RHPyZ2QGjFhVuxCg9,https://www.mirs.qc.ca,"Maison Internationale de la Rive-Sud Inc (Boucherville) 501, Chemin du Lac et 11, rue Louis H.-Lafontaine Nord Boucherville (Montérégie) J4B 6V6 Tel. :  450 445-8777"
Maison Internationale de la Rive-Sud Inc (Greenfield Park),Tel. :  450 445-8777,"Français, Anglais, Espagnol, Arabe, Mandarin, Perse, Kirundi, Swahili, Kinyarwanda, Lingala, Mandarin, Cantonais, Portugais, Créole, Wolof, Ukrainien, Russe, Fon, Barons",https://maps.app.goo.gl/B5DVkaaU1UACW9bWA,https://www.mirs.qc.ca,"Maison Internationale de la Rive-Sud Inc (Greenfield Park) 1972, Av. Victoria Greenfield Park (Montérégie) J4V 1M6 Tel. :  450 445-8777 Fax :  451 445-1222"
Maison Internationale de la Rive-Sud Inc (Greenfield Park),Tel. :  450 445-8777,"Français, Anglais, Espagnol, Arabe, Mandarin, Perse, Kirundi, Swahili, Kinyarwanda, Lingala, Mandarin, Cantonais, Portugais, Créole, Wolof, Ukrainien, Russe, Fon, Barons",https://maps.app.goo.gl/eG8YbycLzKZ7SR2M9,https://www.mirs.qc.ca,Maison Internationale de la Rive-Sud Inc (Greenfield Park) 317 Lawrence Greenfield Park (Montérégie) J4V 2Z5 Tel. :  450 445-8777 Fax :  451 445-1222
Maison Internationale de la Rive-Sud Inc (Saint-Bruno-de Montarville),Tel. :  450 445-8777,"Français, Anglais, Espagnol, Arabe, Mandarin, Perse, Kirundi, Swahili, Kinyarwanda, Lingala, Mandarin, Cantonais, Portugais, Créole, Wolof, Ukrainien, Russe, Fon, Barons",https://maps.app.goo.gl/uXrtpj7uPi6bz8iG8,https://www.mirs.qc.ca,Maison Internationale de la Rive-Sud Inc (Saint-Bruno-de Montarville) 53 chemin de la Rabastalière Saint-Bruno-de-Montarville (Montérégie) J3V 3T5 Tel. :  450 445-8777 Fax :  451 445-1222
Maison Internationale de la Rive-Sud Inc (Saint-Bruno-de-Montarville),Tel. :  450 445-8777,"Français, Anglais, Espagnol, Arabe, Mandarin, Perse, Kirundi, Swahili, Kinyarwanda, Lingala, Mandarin, Cantonais, Portugais, Créole, Wolof, Ukrainien, Russe, Fon, Barons",https://maps.app.goo.gl/y4qbND7gUiDvDwTBA,https://www.mirs.qc.ca,Maison Internationale de la Rive-Sud Inc (Saint-Bruno-de-Montarville) 1668 rue de Montarville Saint-Bruno-de-Montarville (Montérégie) J3V 4P8 Tel. :  450 445-8777 Fax :  451 445-1222
Maison Internationale de la Rive-Sud Inc (Saint-Constant),Tel. :  450 445-8777,"Français, Anglais, Espagnol, Arabe, Mandarin, Perse, Kirundi, Swahili, Kinyarwanda, Lingala, Mandarin, Cantonais, Portugais, Créole, Wolof, Ukrainien, Russe, Fon, Barons",https://maps.app.goo.gl/vqfyZkCgBk4S7ZxM9,https://www.mirs.qc.ca,Maison Internationale de la Rive-Sud Inc (Saint-Constant) 162 Boul. Monchamp Saint Constant (Montérégie) J5A 2K8 Tel. :  450 445-8777
Maison Internationale de la Rive-Sud Inc.,Tel. :  450 445-8777,"Français, Anglais, Espagnol, Arabe, Mandarin, Perse, Kirundi, Swahili, Kinyarwanda, Lingala, Mandarin, Cantonais, Portugais, Créole, Wolof, Ukrainien, Russe, Fon, Barons",https://maps.app.goo.gl/GufpiwstWQGn8WDM8,https://www.mirs.qc.ca,"Maison Internationale de la Rive-Sud Inc. 2500, boulevard Lapinière Brossard (Montérégie) J4Z 3V1 Tel. :  450 445-8777 Fax :  451 445-1222"
Mouvement de la Relève d'Amos-Région Inc.,Tel. :  819 732-8739,"Français, Espagnol, Italien, Anglais, Arabe","https://www.google.ca/maps/place/162+Bd+Mercier,+Amos,+QC+J9T+2P3/@48.5731974,-78.1233083,17z/data=!3m1!4b1!4m5!3m4!1s0x4d20928ddc049cc5:0x4b9298281156f244!8m2!3d48.5731939!4d-78.1211196",https://www.mrar.qc.ca,"Mouvement de la Relève d'Amos-Région Inc. 162, boulevard Mercier Montarville (Abitibi-Témiscamingue) J9T 2P3 Tel. :  819 732-8739 Fax :  819 732-9763"
Perspective Carrière,Tel. :  450 682-2278,"Français, Anglais, Arabe, Espagnol","http://maps.google.ca/maps?q=1772, boulevard Le Corbusier Laval, Québec H7S2K1",https://www.pcarriere.com,"Perspective Carrière 1772, boulevard Le Corbusier Laval (Laval) H7S 2K1 Tel. :  450 682-2278 Fax :  450 682-2924"
Popco Inc.,Tel. :  418 766-8047,"Français, Anglais, Arabe","https://www.google.com/maps/place/4c+Bd+des+%C3%8Eles,+Port-Cartier,+QC+G5B+2J4/@50.020689,-66.878922,17z/data=!3m1!4b1!4m5!3m4!1s0x4c91f2b2ec0b3311:0x8d2cc386f6ffa315!8m2!3d50.020689!4d-66.878922",http://www.popco.qc.ca,"Popco Inc. 4C, boulevard des Îles Port-Cartier (Côte-Nord) G5B 1V6 Tel. :  418 766-8047 Fax :  418 766-6367"
Portes Ouvertes sur le Lac (Alma),Tel. :  418 212-8000,"Français, Anglais, Espagnol, Portugais, Italien, Allemand, Albanais, Russe",https://maps.app.goo.gl/XWQdru353ZwhiaFA8,https://www.portesouvertessurlelac.org,"Portes Ouvertes sur le Lac (Alma) 431, rue Collard Alma (Saguenay-Lac-Saint-Jean) G8B 1N1 Tel. :  418 212-8000"
Portes Ouvertes sur le Lac (Dolbeau-Mistassini),Tel. :  418 276-3626,"Français, Anglais, Espagnol, Portugais, Italien, Allemand, Albanais, Russe","https://www.google.com/maps/place/1201+Rue+des+%C3%89rables,+Dolbeau-Mistassini,+QC+G8L+1C2/@48.8777616,-72.2287478,17z/data=!3m1!4b1!4m5!3m4!1s0x4ce9f1595bf0fbdd:0xa2896a0050c24bea!8m2!3d48.8777616!4d-72.2265645",https://www.portesouvertessurlelac.org,"Portes Ouvertes sur le Lac (Dolbeau-Mistassini) 1201, rue des Érables Dolbeau-Mistassini (Saguenay-Lac-Saint-Jean) G8L 1C2 Tel. :  418 276-3626"
Portes Ouvertes sur le Lac (Saint-Félicien),Tel. :  418 307-5058,"Français, Anglais, Espagnol, Portugais, Italien, Allemand, Albanais, Russe","https://www.google.com/maps/dir//1209+Bd+du+Sacr%C3%A9+Coeur,+Saint-F%C3%A9licien,+QC+G8K+2R2/@48.6528243,-72.4467007,17z/data=!4m8!4m7!1m0!1m5!1m1!1s0x4cc207ebf93f48b5:0x7f88301af667dbed!2m2!1d-72.4467007!2d48.6528243",https://www.portesouvertessurlelac.org,"Portes Ouvertes sur le Lac (Saint-Félicien) 1209, boulevard Sacré-Coeur, C.P. 7000 Saint-Félicien (Saguenay-Lac-Saint-Jean) G8K 2R5 Tel. :  418 307-5058 Fax :  418 679-4083"
Projektion 16-35 (La Pocatière),Tel. :  418 371-1377,"Français, Anglais, Espagnol","https://www.google.com/maps/place/212+4e+Avenue+Painchaud,+La+Pocati%C3%A8re,+QC+G0R+1Z0/@47.3680588,-70.0410732,17z/data=!3m1!4b1!4m5!3m4!1s0x4cbee5dadcab115b:0xce40577244dab534!8m2!3d47.3680588!4d-70.0388899",https://www.projektion16-35.ca,"Projektion 16-35 (La Pocatière) 212, 4e avenue Painchaud La Pocatière (Bas-Saint-Laurent) G0R 1Z0 Tel. :  418 371-1377 Fax :  418 371-1378"
Projektion 16-35 (St-Pascal),Tel. :  418 492-9127,"Français, Anglais, Espagnol","https://www.google.com/maps/place/Projektion+16-35%2FCJE/@47.5296843,-69.804278,17z/data=!3m1!4b1!4m5!3m4!1s0x4cbef65aaece45cf:0x282a9591e4893594!8m2!3d47.5296807!4d-69.8020893",https://www.projektion16-35.ca,"Projektion 16-35 (St-Pascal) 580 C, rue Côté Saint-Pascal (Bas-Saint-Laurent) G0L 3Y0 Tel. :  418 492-9127 Fax :  418 492-7851"
Projet d'Accueil et d'Intégration Solidaire,Tel. :  418 554-9425,"Français, Anglais, Espagnol, Arabe, Mandarin, Russe","https://www.google.com/maps/place/1596+Rte+Marie-Victorin,+Deschaillons-sur-Saint-Laurent,+QC+G0S+1G0/@46.5514846,-72.1276622,17z/data=!3m1!4b1!4m5!3m4!1s0x4cc79906d13c96b5:0x5053b2dc292d72ad!8m2!3d46.5514846!4d-72.1254789",https://www.pais.ca/,"Projet d'Accueil et d'Intégration Solidaire 1596, route Marie-Victorin Deschaillons-sur-Saint-Laurent (Centre-du-Québec) G0S 1G0 Tel. :  418 554-9425"
PROMIS (Promotion - Intégration - Société Nouvelle),Tel. :  514 345-1615,"Français, Anglais, Espagnol, Arabe, Russe, Farsi, Bosnien, Serbe, Croate, Créole (Haïtien), Portugais, Allemand, Ukrainien, Urdu, Pendjabi, Hindi","https://www.google.com/maps/place/3333+Chem.+de+la+C%C3%B4te-Sainte-Catherine,+Montr%C3%A9al,+QC+H3S+2C5/@45.5006058,-73.6284004,17z/data=!3m1!4b1!4m8!1m2!2m1!1shttp:%2F%2Fmaps.google.ca%2Fmaps%3Fq%3D3333,+chemin+de+la+C%C3%B4te-Sainte-Catherine+Montr%C3%A9al,+Qu%C3%A9bec+H3T1C8!3m4!1s0x4cc919ec11aa875f:0x653f31c522148417!8m2!3d45.5006058!4d-73.6262171",https://www.promis.qc.ca,"PROMIS (Promotion - Intégration - Société Nouvelle) 3333, chemin de la Côte-Sainte-Catherine Montréal (Montréal) H3T 1C8 Tel. :  514 345-1615 Fax :  514 345-1088"
Réseaux Employabilité Immigration Entrepreneuriat,Tel. :  450 424-5727,"Français, Anglais, Roumain, Russe, Pendjabi, Hindi, Espagnol, Arabe, Italien, Urdu, Ukrainien","https://www.google.com/maps/place/430+Boulevard+Harwood+Bureau+130,+Vaudreuil-Dorion,+QC+J7V+7H4/@45.3784317,-74.0219221,17z/data=!3m1!4b1!4m8!1m2!2m1!1shttp:%2F%2Fmaps.google.ca%2Fmaps%3Fq%3D430,+boulevard+Harwood,+bureau+130+Vaudreuil-Dorion,+Qu%C3%A9bec+J7V7H4!3m4!1s0x4cc94819d8fad9e9:0x401cad97e6c7ca1e!8m2!3d45.3784317!4d-74.0197388",https://www.reseauxvs.ca,"Réseaux Employabilité Immigration Entrepreneuriat 430, boulevard Harwood Vaudreuil-Dorion (Montérégie) J7V 7H4 Tel. :  450 424-5727 Fax :  450 424-5733"
Saint-Hyacinthe Technopole,Tel. :  450 774-9000,"Français, Anglais, Espagnol, Portugais","https://www.google.com/maps/place/1000+Rue+Dessaulles,+Saint-Hyacinthe,+QC+J2S+8W1/@45.6280831,-72.9476358,17z/data=!3m1!4b1!4m5!3m4!1s0x4cc84e645f427297:0x6fcdbfa0a612c70a!8m2!3d45.6280794!4d-72.9454471",https://st-hyacinthetechnopole.com/,"Saint-Hyacinthe Technopole 1000, rue Dessaules Saint-Hyacinthe (Montérégie) J2S 8W1 Tel. :  450 774-9000 Fax :  451 773-6767"
Service Accès Travail de Portneuf (Donnaconna),Tel. :  418 329-2511,"Français, Anglais, Espagnol, Arabe, Italien","https://www.google.ca/maps/place/162+Rue+Notre+Dame,+Donnacona,+QC+G3M+1G4/@46.6733908,-71.7399174,17z/data=!3m1!4b1!4m6!3m5!1s0x4cc77e97da5385b5:0xeb2c9c6ea4fa4bf1!8m2!3d46.6733908!4d-71.7399174!16s%2Fg%2F11c4869c55?entry=ttu",https://www.accestravailportneuf.com,"Service Accès Travail de Portneuf (Donnaconna) 162, rue Notre-Dame Donnaconna (Capitale-Nationale) G3M 1G4 Tel. :  418 329-2511 Fax :  418 329-2644"
Service Accès Travail de Portneuf (Saint-Marc-des-Carrières),Tel. :  418 329-2511,"Français, Anglais, Espagnol, Arabe, Italien","https://www.google.com/maps/place/Carrefour+jeunesse-emploi+de+Portneuf+(St-Marc-des-Carri%C3%A8res)/@46.6771709,-72.0525786,17z/data=!4m9!1m2!2m1!1shttps:%2F%2Fwww.google.com%2Fmaps%2Fplace%2F150%2BRue%2BSt%2BJoseph,%2BSaint-Marc-des-Carri%25C3%25A8res,%2BQC%2BG0A%2B4B0%2F@46.6771672,-72.0500037,17z%2Fdata%3D*213m1*214b1*214m6*213m5*211s0x4cc775a06a9d5fdb:0xa43846b9e597313*218m2*213d46.6771672*214d-72.0500037*2116s%252Fg%252F11c1_hktnr%3Fentry%3Dttu!3m5!1s0x4cc775a0b48193fd:0x757fd2a0072f2cbe!8m2!3d46.6771796!4d-72.0500347!16s%2Fg%2F1tkbxv8m?entry=ttu",https://www.accestravailportneuf.com,"Service Accès Travail de Portneuf (Saint-Marc-des-Carrières) 150, rue Saint-Joseph Saint-Marc-des-Carrières (Capitale-Nationale) G0A 4B0 Tel. :  418 329-2511 Fax :  418 329-2644"
Service Accès Travail de Portneuf (Saint-Raymond),Tel. :  418 329-2511,"Français, Anglais, Espagnol, Arabe, Italien",https://maps.app.goo.gl/ewLUmURpYp2skVaC7,https://www.accestravailportneuf.com,"Service Accès Travail de Portneuf (Saint-Raymond) 592, rue Guyon Saint-Raymond (Capitale-Nationale) G3L 0A5 Tel. :  418 329-2511 Fax :  418 329-2644"
Service Accès-Emploi (Pohénégamook),Tel. :  418 855-2777,"Français, Anglais","https://www.google.ca/maps/place/474+Rue+des+Etudiants,+Poh%C3%A9n%C3%A9gamook,+QC+G0L+1J0/@47.4566846,-69.1543789,17z/data=!3m1!4b1!4m5!3m4!1s0x4cbdd523bac3653f:0x32cde0a87cf213cc!8m2!3d47.4566846!4d-69.1521849",https://www.accesemploi.org,"Service Accès-Emploi (Pohénégamook) 474, rue des Étudiants Pohénégamook (Bas-Saint-Laurent) G0L 1J0 Tel. :  418 855-2777 Fax :  418 855-2276"
Service Accès-Emploi (Squatec),Tel. :  418 855-2777,"Français, Anglais","https://www.google.ca/maps/place/95+Rue+Saint-Joseph,+Squatec,+QC+G0L+4H0/@47.8815514,-68.7270259,17z/data=!3m1!4b1!4m5!3m4!1s0x4cbdfb6d9b1035ff:0x308e2356ea8524b2!8m2!3d47.8815514!4d-68.7248372",https://www.accesemploi.org,"Service Accès-Emploi (Squatec) 95, rue Saint-Joseph Squatec (Bas-Saint-Laurent) G0L 4H0 Tel. :  418 855-2777 Fax :  418 855-2276"
Service Accès-Emploi(Témiscouata-Sur-Le-Lac),Tel. :  418 855-2777,"Français, Anglais","https://www.google.ca/maps/place/856+Rue+Commerciale+N,+T%C3%A9miscouata-sur-le-Lac,+QC+G0L+1E0/@47.6839838,-68.8847208,17z/data=!3m1!4b1!4m5!3m4!1s0x4cbdddcf317c2d9f:0xadde0a809b65c017!8m2!3d47.6839838!4d-68.8825268",https://www.accesemploi.org,"Service Accès-Emploi(Témiscouata-Sur-Le-Lac) 851, rue Commerciale Nord Témiscouata-sur-le-Lac (Bas-Saint-Laurent) G0L 1E0 Tel. :  418 855-2777 Fax :  418 855-2276"
Service d'Accueil des Nouveaux Arrivants (SANA) de la MRC de Maskinongé,Tel. :  819 519-9461,"Français, Anglais, Arabe, Portugais, Espagnol","https://www.google.com/maps/dir//30+Bd+Comtois,+Louiseville,+QC+J5V+2H6/@46.2552454,-72.9529038,17z/data=!4m8!4m7!1m0!1m5!1m1!1s0x4cc62eba5666f191:0xd5b8eea9aa185e09!2m2!1d-72.9529038!2d46.2552454",https://www.sanamrcmaskinonge.ca,"Service d'Accueil des Nouveaux Arrivants (SANA) de la MRC de Maskinongé 30, boulevard Comtois Louiseville (Mauricie) J5V 2H6 Tel. :  819 519-9461"
SERVICE D'ACCUEIL DES NOUVEAUX ARRIVANTS (SANA) DE TROIS-RIVIÈRES,Tel. :  820 375-2196,"Français, Anglais, Swahili, Lingala, Sango, Arabe, Mandarin, Portugais, Espagnol, Italien",https://goo.gl/maps/f4V6vciehdPznTn97,https://www.sana3r.ca,"SERVICE D'ACCUEIL DES NOUVEAUX ARRIVANTS (SANA) DE TROIS-RIVIÈRES 2000, boulevard Des Récollets Trois-Rivières (Mauricie) G9A 3X4 Tel. :  820 375-2196 Fax :  820 375-9535"
Service d'Accueil des Nouveaux Arrivants de la Matanie - SANAM (CEGEP-Bureau principal),Tel. :  580 465-2015,"Français, Anglais, Espagnol","https://www.google.ca/maps/place/616+Avenue+St+Rédempteur,+Matane,+QC+G4W+1L1",https://www.sanamatanie.org,"Service d'Accueil des Nouveaux Arrivants de la Matanie - SANAM (CEGEP-Bureau principal) 616, avenue Saint-Rédempteur Matane (Bas-Saint-Laurent) G4W 1L1 Tel. :  580 465-2015"
Service d'Accueil des Nouveaux Arrivants de la Matanie - SANAM (Matane),Tel. :  581 465-2015,"Français, Anglais, Espagnol","https://www.google.com/maps/place/289+Rue+du+Bon+Pasteur,+Matane,+QC+G4W+3C8/@48.846063,-67.5317035,1184m/data=!3m2!1e3!4b1!4m6!3m5!1s0x4c96c0e0c28edeb7:0xa69dd07eb7cb127d!8m2!3d48.846063!4d-67.5317035!16s%2Fg%2F11ggs9nl2d?entry=ttu&g_ep=EgoyMDI0MTIwMy4wIKXMDSoASAFQAw%3D%3D",https://www.sanamatanie.org,"Service d'Accueil des Nouveaux Arrivants de la Matanie - SANAM (Matane) 289, avenue du Bon-Pasteur Matane (Bas-Saint-Laurent) G4W 3C8 Tel. :  581 465-2015"
Service d'Accueil des Nouveaux Arrivants de Shawinigan,Tel. :  819 601-9222,"Français, Anglais, Hindi, Espagnol, Suisse, Allemand","https://www.google.com/maps/dir//Service+d'accueil+des+nouveaux+arrivants+(Sana),+747+5e+rue+de+la+Pointe,+Shawinigan,+QC+G9N+1G2/@46.5402828,-72.7532842,17z/data=!4m8!4m7!1m0!1m5!1m1!1s0x4cc64c25b162fbe7:0x103ff1b467a49a83!2m2!1d-72.7510955!2d46.5402828",https://www.sanashawinigan.ca,"Service d'Accueil des Nouveaux Arrivants de Shawinigan 747, 5e rue de la pointe Shawinigan (Mauricie) G9N 1G2 Tel. :  819 601-9222"
Service d'Aide à l'Adaptation des Immigrants et Immigrantes (S.A.A.I.),Tel. :  418 523-2058,"Français, Anglais, Espagnol, Arabe, Portugais, Nd'a, Malgache",https://maps.app.goo.gl/suqiyLGsmJ2KvfqX7,https://www.saaiquebec.org,"Service d'Aide à l'Adaptation des Immigrants et Immigrantes (S.A.A.I.) 1135, Grande Allée Ouest Québec (Capitale-Nationale) G1S 1E7 Tel. :  418 523-2058"
Service d'Aide à la Famille Immigrante de la MRC de l'Assomption (SAFIMA),Tel. :  514 499-8077,"Français, Arabe, Anglais, Espagnol, Créole, Dialectes africains, Roumain",https://maps.app.goo.gl/br7i9VqR3aDThqe98,https://www.safima.ca,"Service d'Aide à la Famille Immigrante de la MRC de l'Assomption (SAFIMA) 50, rue Thouin Repentigny (Lanaudière) J6A 4J4 Tel. :  514 499-8077"
Service d'Aide aux Néo-Canadiens (Sherbrooke) Inc (East-Angus),Tel. :  816 566-5373,"Français, Espagnol, Arabe, Anglais, Dari",https://maps.app.goo.gl/RbcrW8ZiT7Q5Y6Np9,https://www.sanc-sherbrooke.ca,"Service d'Aide aux Néo-Canadiens (Sherbrooke) Inc (East-Angus) 1A-150, rue Angus Nord East-Angus (Estrie) J0B 1R0 Tel. :  816 566-5373 Fax :  816 566-1331"
Service d'Aide aux Néo-Canadiens (Sherbrooke) Inc (Lac-Mégantic),Tel. :  817 566-5373,"Français, Espagnol, Arabe, Anglais, Dari",https://maps.app.goo.gl/6Kbpq1m3HZDTuNpy8,https://www.sanc-sherbrooke.ca,"Service d'Aide aux Néo-Canadiens (Sherbrooke) Inc (Lac-Mégantic) 4730, rue Dollard Lac-Mégantic (Estrie) G6B 1G6 Tel. :  817 566-5373 Fax :  817 566-1331"
Service d'Aide aux Néo-Canadiens (Sherbrooke) Inc.,Tel. :  819 566-5373,"Français, Espagnol, Arabe, Anglais, Dari","http://maps.google.ca/maps?q=530, rue Prospect Sherbrooke, Québec J1H1A8",https://www.sanc-sherbrooke.ca,"Service d'Aide aux Néo-Canadiens (Sherbrooke) Inc. 530, rue Prospect Sherbrooke (Estrie) J1H 1A8 Tel. :  819 566-5373 Fax :  819 566-1331"
Service d'Aide aux Néo-Canadiens (Sherbrooke) Inc. (Coaticook),Tel. :  818 566-5373,"Français, Espagnol, Arabe, Anglais, Dari",https://maps.app.goo.gl/Fz4Yh9VUBAwCLAW66,https://www.sanc-sherbrooke.ca,"Service d'Aide aux Néo-Canadiens (Sherbrooke) Inc. (Coaticook) 23, rue Cutting Coaticook (Estrie) J1A 2G1 Tel. :  818 566-5373 Fax :  818 566-1331"
Service d'Aide et de Liaison pour Immigrants La Maisonnée,Tel. :  514 271-3533,"Français, Anglais, Arabes (Algérien, Marocain, Libanais, Yéménite), Espagnol, Farsi, Dari, Ivoirien, Russe, Lingala, Kirundi, Portugais, Urdu, Pendjabi, Mandarin, Somalien, Swahili, Créole",https://maps.app.goo.gl/HsVuwgv6LtBEyXr49,https://www.lamaisonnee.org,"Service d'Aide et de Liaison pour Immigrants La Maisonnée 6865, avenue Christophe-Colomb Montréal (Montréal) H2S 2H3 Tel. :  514 271-3533 Fax :  514 271-1910"
Service d'Interprète d'Aide et de Référence aux Immigrants (SIARI),Tel. :  514 738-4763,"Français, Anglais, Espagnol, Vietnamien, Tamoul, Wolof, Russe, Arménien, Farsi, Dari, Pendjabi, Hindi, Kannada, Tagalog, Arabe, Persan, Bengali, Créole (Haïtien), Ourdou, Mandarin, Turc, Grec, Roumain, Yiddish, Albanais, Italien, Kabyle, Cantonais, Bambara, Malinké, Ukrainien, Laos","http://maps.google.ca/maps?q=6767, chemin de la Côte-des-Neiges, bureau 499 Montréal, Québec H3S2T6",https://www.siari.org,"Service d'Interprète d'Aide et de Référence aux Immigrants (SIARI) 6767, chemin de la Côte-des-Neiges Montréal (Montréal) H3S 2T6 Tel. :  514 738-4763 Fax :  514 738-4925"
Service d'Orientation et d'Intégration des Immigrants au Travail (SOIT),Tel. :  418 648-0822,"Français, Anglais, Espagnol, Arabe, Créole",https://maps.app.goo.gl/iBaBAyWhVPCb1r1Y7,https://www.soit.quebec,"Service d'Orientation et d'Intégration des Immigrants au Travail (SOIT) 2954, boulevard Laurier Québec (Capitale-Nationale) G1V 4T2 Tel. :  418 648-0822 Fax :  418 648-8415"
Service Intégration Travail Outaouais,Tel. :  819 776-2260,"Français, Anglais, Espagnol, Portugais, Russe, Roumain, Arabe","http://maps.google.ca/maps?q=4, rue Taschereau, bureau 400 Gatineau, Québec J8Y2V5",https://www.sito.qc.ca,"Service Intégration Travail Outaouais 920, boulevard St-Joseph Gatineau (Outaouais) J8Z 1S9 Tel. :  819 776-2260 Fax :  819 776-2988"
Solidarité Ethnique Régionale de la Yamaska (Cowansville),"Tel. :  449 777-7213, Ext. 296","Français, Anglais, Espagnol, Ewé","https://www.google.ca/maps/place/749+Rue+Principale,+Granby,+QC+J2G+2Y6/@45.4116263,-72.7491319,17z/data=!3m1!4b1!4m5!3m4!1s0x4cc9ce8ad474b5cb:0x10585d610710d03c!8m2!3d45.4116263!4d-72.7469379",https://www.sery-granby.org,"Solidarité Ethnique Régionale de la Yamaska (Cowansville) 749, rue Principale Cowansville (Estrie) J2K 1J8 Tel. :  449 777-7213, Ext. 296 Fax :  449 777-4942"
Solidarité Ethnique Régionale de la Yamaska (Granby),Tel. :  450 777-7213,"Français, Anglais, Espagnol, Ewé, kirundi, Kinyarwandais","http://maps.google.ca/maps?q=369, rue Saint-Jacques Granby, Québec J2G3N5",https://www.sery-granby.org,"Solidarité Ethnique Régionale de la Yamaska (Granby) 369, rue Saint-Jacques Granby (Estrie) J2G 3N5 Tel. :  450 777-7213 Fax :  450 777-4942"
Tremplin Travail Vallée de la Matapédia,"Tel. :  418 629-2572, Ext. 2777","Français, Anglais, Espagnol","https://www.google.com/maps/dir//Tremplin+Travail+Vall%C3%A9e+de+la+Matap%C3%A9dia+Inc,+65+Bd+Saint-Benoit+O,+Amqui,+QC+G5J+2E5/@48.463595,-67.430391,15z/data=!4m8!4m7!1m0!1m5!1m1!1s0x4c96ffb41252e13b:0x8936236bec97c22e!2m2!1d-67.4305745!2d48.4637805",https://www.tremplintravail.com,"Tremplin Travail Vallée de la Matapédia 65, boulevard. Saint-Benoît Ouest Amqui (Bas-Saint-Laurent) G5J 2E5 Tel. :  418 629-2572, Ext. 2777 Fax :  418 629-2973"
Univers Emploi,Tel. :  418 314-0404,"Français, Anglais",https://maps.app.goo.gl/WB7iyPKqZiTkH54V7,https://www.universemploi.ca,"Univers Emploi 50, rue Notre-Dame O Trois-Pistoles G0L 4K0 Tel. :  418 314-0404 Fax :  417 867-3550"
Zone Emploi d'Antoine-Labelle (Mont-Laurier),Tel. :  819 623-5051,"Français, Anglais, Espagnol","https://www.google.ca/maps/place/601+Rue+de+la+Madone,+Mont-Laurier,+QC+J9L+1S8/@46.5532287,-75.4986439,17z/data=!3m1!4b1!4m5!3m4!1s0x4cdaabaf859e7925:0x1681e903175d5c21!8m2!3d46.5532287!4d-75.4964552?hl=fr",https://www.zemploi.com,"Zone Emploi d'Antoine-Labelle (Mont-Laurier) 3-601, rue de la Madone Mont-Laurier (Laurentides) J9L 1S8 Tel. :  819 623-5051 Fax :  819 623-5504"
Zone Emploi d'Antoine-Labelle (Rivière-Rouge),Tel. :  819 623-5051,"Français, Anglais, Espagnol","https://www.google.ca/maps/place/1355+Rue+L'Annonciation+S,+L'Annonciation,+QC/@46.4012098,-74.8693918,17z/data=!3m1!4b1!4m5!3m4!1s0x4ccf8a55544754c7:0xabcac3e9b271a13a!8m2!3d46.4012061!4d-74.8672031?hl=fr",https://www.zemploi.com,"Zone Emploi d'Antoine-Labelle (Rivière-Rouge) 1355, rue L'Annonciation Sud Rivière-Rouge (Laurentides) J0T 1T0 Tel. :  819 623-5051 Fax :  819 623-5504"
